"Longitude (x)","Latitude (y)","Station Name","Climate ID","Date/Time (LST)","Year","Month","Day","Time (LST)","Temp (°C)","Temp Flag","Dew Point Temp (°C)","Dew Point Temp Flag","Rel Hum (%)","Rel Hum Flag","Precip. Amount (mm)","Precip. Amount Flag","Wind Dir (10s deg)","Wind Dir Flag","Wind Spd (km/h)","Wind Spd Flag","Visibility (km)","Visibility Flag","Stn Press (kPa)","Stn Press Flag","Hmdx","Hmdx Flag","Wind Chill","Wind Chill Flag","Weather"
"-75.67","45.32","OTTAWA INTL A","6106001","2023-05-01 00:00","2023","05","01","00:00","8.3","","7.7","","96","","","","8","","31","","12.9","","97.54","","","","","","Rain"
"-75.67","45.32","OTTAWA INTL A","6106001","2023-05-01 01:00","2023","05","01","01:00","8.4","","7.8","","96","","","","8","","30","","12.9","","97.36","","","","","","Cloudy"
"-75.67","45.32","OTTAWA INTL A","6106001","2023-05-01 02:00","2023","05","01","02:00","8.2","","7.7","","97","","","","7","","28","","11.3","","97.15","","","","","","Rain"
"-75.67","45.32","OTTAWA INTL A","6106001","2023-05-01 03:00","2023","05","01","03:00","8.2","","7.8","","98","","","","7","","27","","2.4","","97.02","","","","","","Rain,Fog"
"-75.67","45.32","OTTAWA INTL A","6106001","2023-05-01 04:00","2023","05","01","04:00","8.2","","7.9","","98","","","","7","","21","","2.4","","96.87","","","","","","Rain,Fog"
"-75.67","45.32","OTTAWA INTL A","6106001","2023-05-01 05:00","2023","05","01","05:00","8.4","","8.0","","97","","","","8","","18","","3.2","","96.75","","","","","","Rain,Fog"
"-75.67","45.32","OTTAWA INTL A","6106001","2023-05-01 06:00","2023","05","01","06:00","8.4","","8.2","","98","","","","19","","8","","3.2","","96.73","","","","","","Rain,Fog"
"-75.67","45.32","OTTAWA INTL A","6106001","2023-05-01 07:00","2023","05","01","07:00","8.5","","8.3","","99","","","","19","","10","","4.8","","96.76","","","","","","Rain,Fog"
"-75.67","45.32","OTTAWA INTL A","6106001","2023-05-01 08:00","2023","05","01","08:00","9.0","","8.7","","98","","","","22","","18","","9.7","","96.75","","","","","","Rain,Fog"
"-75.67","45.32","OTTAWA INTL A","6106001","2023-05-01 09:00","2023","05","01","09:00","8.0","","7.0","","94","","","","23","","28","","9.7","","96.85","","","","","","Rain,Fog"
"-75.67","45.32","OTTAWA INTL A","6106001","2023-05-01 10:00","2023","05","01","10:00","7.2","","5.4","","88","","","","23","","34","","16.1","","96.99","","","","","","Rain"
"-75.67","45.32","OTTAWA INTL A","6106001","2023-05-01 11:00","2023","05","01","11:00","6.6","","5.0","","89","","","","22","","33","","16.1","","97.11","","","","","","Rain"
"-75.67","45.32","OTTAWA INTL A","6106001","2023-05-01 12:00","2023","05","01","12:00","6.3","","4.7","","89","","","","23","","23","","4.8","","97.25","","","","","","Rain,Fog"
"-75.67","45.32","OTTAWA INTL A","6106001","2023-05-01 13:00","2023","05","01","13:00","6.3","","4.7","","90","","","","25","","21","","16.1","","97.33","","","","","","Rain"
"-75.67","45.32","OTTAWA INTL A","6106001","2023-05-01 14:00","2023","05","01","14:00","8.1","","5.7","","84","","","","22","","15","","24.1","","97.37","","","","","","NA"
"-75.67","45.32","OTTAWA INTL A","6106001","2023-05-01 15:00","2023","05","01","15:00","8.4","","5.8","","83","","","","23","","13","","24.1","","97.43","","","","","","Rain"
"-75.67","45.32","OTTAWA INTL A","6106001","2023-05-01 16:00","2023","05","01","16:00","11.4","","5.0","","65","","","","19","","25","","24.1","","97.50","","","","","","Mostly Cloudy"
"-75.67","45.32","OTTAWA INTL A","6106001","2023-05-01 17:00","2023","05","01","17:00","10.3","","3.2","","61","","","","18","","19","","24.1","","97.57","","","","","","NA"
"-75.67","45.32","OTTAWA INTL A","6106001","2023-05-01 18:00","2023","05","01","18:00","9.2","","3.0","","65","","","","19","","19","","24.1","","97.66","","","","","","NA"
"-75.67","45.32","OTTAWA INTL A","6106001","2023-05-01 19:00","2023","05","01","19:00","8.3","","2.5","","67","","","","18","","13","","24.1","","97.75","","","","","","Mostly Cloudy"
"-75.67","45.32","OTTAWA INTL A","6106001","2023-05-01 20:00","2023","05","01","20:00","6.7","","2.1","","73","","","","17","","11","","24.1","","97.84","","","","","","NA"
"-75.67","45.32","OTTAWA INTL A","6106001","2023-05-01 21:00","2023","05","01","21:00","6.3","","2.5","","76","","","","16","","13","","24.1","","97.90","","","","","","NA"
"-75.67","45.32","OTTAWA INTL A","6106001","2023-05-01 22:00","2023","05","01","22:00","5.9","","3.0","","81","","","","13","","15","","24.1","","97.88","","","","","","Mostly Cloudy"
"-75.67","45.32","OTTAWA INTL A","6106001","2023-05-01 23:00","2023","05","01","23:00","5.5","","3.8","","88","","","","14","","14","","24.1","","97.91","","","","","","NA"
"-75.67","45.32","OTTAWA INTL A","6106001","2023-05-02 00:00","2023","05","02","00:00","4.3","","3.1","","92","","","","14","","14","","24.1","","97.92","","","","","","NA"
"-75.67","45.32","OTTAWA INTL A","6106001","2023-05-02 01:00","2023","05","02","01:00","3.5","","2.7","","95","","","","11","","12","","24.1","","97.89","","","","","","Mostly Cloudy"
"-75.67","45.32","OTTAWA INTL A","6106001","2023-05-02 02:00","2023","05","02","02:00","4.6","","3.7","","94","","","","10","","11","","24.1","","97.87","","","","","","NA"
"-75.67","45.32","OTTAWA INTL A","6106001","2023-05-02 03:00","2023","05","02","03:00","5.0","","3.9","","92","","","","11","","12","","24.1","","97.91","","","","","","NA"
"-75.67","45.32","OTTAWA INTL A","6106001","2023-05-02 04:00","2023","05","02","04:00","5.2","","3.8","","91","","","","12","","14","","24.1","","97.93","","","","","","Cloudy"
"-75.67","45.32","OTTAWA INTL A","6106001","2023-05-02 05:00","2023","05","02","05:00","4.7","","3.3","","91","","","","12","","11","","24.1","","97.96","","","","","","NA"
"-75.67","45.32","OTTAWA INTL A","6106001","2023-05-02 06:00","2023","05","02","06:00","5.6","","4.1","","90","","","","10","","10","","24.1","","97.98","","","","","","NA"
"-75.67","45.32","OTTAWA INTL A","6106001","2023-05-02 07:00","2023","05","02","07:00","6.4","","4.4","","87","","","","11","","14","","24.1","","98.00","","","","","","Mostly Cloudy"
"-75.67","45.32","OTTAWA INTL A","6106001","2023-05-02 08:00","2023","05","02","08:00","6.6","","5.0","","89","","","","10","","18","","24.1","","98.02","","","","","","Rain"
"-75.67","45.32","OTTAWA INTL A","6106001","2023-05-02 09:00","2023","05","02","09:00","7.8","","4.6","","80","","","","12","","17","","24.1","","98.04","","","","","","NA"
"-75.67","45.32","OTTAWA INTL A","6106001","2023-05-02 10:00","2023","05","02","10:00","8.3","","4.9","","79","","","","10","","17","","24.1","","98.04","","","","","","Mostly Cloudy"
"-75.67","45.32","OTTAWA INTL A","6106001","2023-05-02 11:00","2023","05","02","11:00","9.4","","5.3","","75","","","","7","","19","","24.1","","98.04","","","","","","NA"
"-75.67","45.32","OTTAWA INTL A","6106001","2023-05-02 12:00","2023","05","02","12:00","9.1","","4.8","","75","","","","7","","12","","24.1","","98.04","","","","","","NA"
"-75.67","45.32","OTTAWA INTL A","6106001","2023-05-02 13:00","2023","05","02","13:00","11.7","","5.7","","67","","","","7","","14","","24.1","","98.05","","","","","","Mostly Cloudy"
"-75.67","45.32","OTTAWA INTL A","6106001","2023-05-02 14:00","2023","05","02","14:00","7.6","","4.2","","79","","","","26","","11","","24.1","","98.08","","","","","","NA"
"-75.67","45.32","OTTAWA INTL A","6106001","2023-05-02 15:00","2023","05","02","15:00","9.3","","4.5","","72","","","","27","","9","","24.1","","98.11","","","","","","NA"
"-75.67","45.32","OTTAWA INTL A","6106001","2023-05-02 16:00","2023","05","02","16:00","9.7","","3.8","","67","","","","34","","4","","24.1","","98.14","","","","","","Mostly Cloudy"
"-75.67","45.32","OTTAWA INTL A","6106001","2023-05-02 17:00","2023","05","02","17:00","10.8","","4.4","","65","","","","2","","8","","24.1","","98.17","","","","","","NA"
"-75.67","45.32","OTTAWA INTL A","6106001","2023-05-02 18:00","2023","05","02","18:00","8.9","","4.6","","74","","","","5","","11","","24.1","","98.23","","","","","","NA"
"-75.67","45.32","OTTAWA INTL A","6106001","2023-05-02 19:00","2023","05","02","19:00","8.4","","4.4","","76","","","","7","","8","","24.1","","98.31","","","","","","Mostly Cloudy"
"-75.67","45.32","OTTAWA INTL A","6106001","2023-05-02 20:00","2023","05","02","20:00","8.0","","5.6","","85","","","","6","","6","","24.1","","98.35","","","","","","NA"
"-75.67","45.32","OTTAWA INTL A","6106001","2023-05-02 21:00","2023","05","02","21:00","7.7","","5.7","","87","","","","36","","1","","24.1","","98.37","","","","","","NA"
"-75.67","45.32","OTTAWA INTL A","6106001","2023-05-02 22:00","2023","05","02","22:00","7.0","","5.6","","91","","","","21","","8","","24.1","","98.38","","","","","","Mostly Cloudy"
"-75.67","45.32","OTTAWA INTL A","6106001","2023-05-02 23:00","2023","05","02","23:00","7.9","","5.7","","86","","","","28","","7","","24.1","","98.38","","","","","","NA"
"-75.67","45.32","OTTAWA INTL A","6106001","2023-05-03 00:00","2023","05","03","00:00","7.6","","6.4","","92","","","","35","","5","","12.9","","98.38","","","","","","Rain Showers"
"-75.67","45.32","OTTAWA INTL A","6106001","2023-05-03 01:00","2023","05","03","01:00","7.3","","6.6","","95","","","","34","","10","","12.9","","98.35","","","","","","Rain"
"-75.67","45.32","OTTAWA INTL A","6106001","2023-05-03 02:00","2023","05","03","02:00","7.1","","6.8","","98","","","","33","","10","","9.7","","98.30","","","","","","Rain,Fog"
"-75.67","45.32","OTTAWA INTL A","6106001","2023-05-03 03:00","2023","05","03","03:00","7.0","","6.6","","97","","","","34","","14","","9.7","","98.28","","","","","","Rain,Fog"
"-75.67","45.32","OTTAWA INTL A","6106001","2023-05-03 04:00","2023","05","03","04:00","7.0","","6.7","","98","","","","36","","7","","8.1","","98.28","","","","","","Rain,Fog"
"-75.67","45.32","OTTAWA INTL A","6106001","2023-05-03 05:00","2023","05","03","05:00","7.2","","7.0","","98","","","","6","","7","","3.2","","98.32","","","","","","Rain,Fog"
"-75.67","45.32","OTTAWA INTL A","6106001","2023-05-03 06:00","2023","05","03","06:00","7.6","","7.4","","99","","","","8","","11","","3.2","","98.40","","","","","","Rain,Fog"
"-75.67","45.32","OTTAWA INTL A","6106001","2023-05-03 07:00","2023","05","03","07:00","7.7","","7.0","","96","","","","7","","25","","3.2","","98.47","","","","","","Rain,Fog"
"-75.67","45.32","OTTAWA INTL A","6106001","2023-05-03 08:00","2023","05","03","08:00","7.7","","6.8","","94","","","","6","","26","","3.2","","98.54","","","","","","Rain,Fog"
"-75.67","45.32","OTTAWA INTL A","6106001","2023-05-03 09:00","2023","05","03","09:00","7.5","","6.3","","93","","","","6","","28","","4.8","","98.61","","","","","","Rain,Fog"
"-75.67","45.32","OTTAWA INTL A","6106001","2023-05-03 10:00","2023","05","03","10:00","7.2","","6.1","","93","","","","7","","29","","6.4","","98.67","","","","","","Rain,Fog"
"-75.67","45.32","OTTAWA INTL A","6106001","2023-05-03 11:00","2023","05","03","11:00","7.5","","6.2","","91","","","","6","","24","","24.1","","98.73","","","","","","Rain"
"-75.67","45.32","OTTAWA INTL A","6106001","2023-05-03 12:00","2023","05","03","12:00","8.8","","6.7","","86","","","","6","","25","","24.1","","98.77","","","","","","Rain"
"-75.67","45.32","OTTAWA INTL A","6106001","2023-05-03 13:00","2023","05","03","13:00","9.1","","5.2","","76","","","","6","","30","","24.1","","98.83","","","","","","Cloudy"
"-75.67","45.32","OTTAWA INTL A","6106001","2023-05-03 14:00","2023","05","03","14:00","8.5","","5.9","","84","","","","7","","25","","16.1","","98.87","","","","","","Rain"
"-75.67","45.32","OTTAWA INTL A","6106001","2023-05-03 15:00","2023","05","03","15:00","8.1","","6.5","","90","","","","5","","23","","16.1","","98.92","","","","","","Rain"
"-75.67","45.32","OTTAWA INTL A","6106001","2023-05-03 16:00","2023","05","03","16:00","7.9","","6.1","","88","","","","4","","26","","16.1","","98.98","","","","","","Rain"
"-75.67","45.32","OTTAWA INTL A","6106001","2023-05-03 17:00","2023","05","03","17:00","7.6","","6.0","","89","","","","4","","21","","24.1","","99.07","","","","","","Rain"
"-75.67","45.32","OTTAWA INTL A","6106001","2023-05-03 18:00","2023","05","03","18:00","6.9","","5.2","","89","","","","4","","23","","9.7","","99.17","","","","","","Rain,Fog"
"-75.67","45.32","OTTAWA INTL A","6106001","2023-05-03 19:00","2023","05","03","19:00","6.6","","5.2","","91","","","","3","","21","","24.1","","99.24","","","","","","Rain"
"-75.67","45.32","OTTAWA INTL A","6106001","2023-05-03 20:00","2023","05","03","20:00","6.5","","5.2","","91","","","","4","","19","","16.1","","99.32","","","","","","Rain"
"-75.67","45.32","OTTAWA INTL A","6106001","2023-05-03 21:00","2023","05","03","21:00","6.3","","5.2","","92","","","","4","","20","","16.1","","99.39","","","","","","Rain"
"-75.67","45.32","OTTAWA INTL A","6106001","2023-05-03 22:00","2023","05","03","22:00","6.1","","5.2","","94","","","","4","","19","","16.1","","99.43","","","","","","Rain"
"-75.67","45.32","OTTAWA INTL A","6106001","2023-05-03 23:00","2023","05","03","23:00","5.9","","5.3","","96","","","","4","","17","","16.1","","99.46","","","","","","Rain"
"-75.67","45.32","OTTAWA INTL A","6106001","2023-05-04 00:00","2023","05","04","00:00","5.8","","5.3","","96","","","","4","","18","","16.1","","99.50","","","","","","Rain"
"-75.67","45.32","OTTAWA INTL A","6106001","2023-05-04 01:00","2023","05","04","01:00","5.9","","5.3","","96","","","","4","","16","","24.1","","99.53","","","","","","Cloudy"
"-75.67","45.32","OTTAWA INTL A","6106001","2023-05-04 02:00","2023","05","04","02:00","5.7","","4.9","","95","","","","5","","15","","24.1","","99.56","","","","","","NA"
"-75.67","45.32","OTTAWA INTL A","6106001","2023-05-04 03:00","2023","05","04","03:00","5.5","","5.0","","96","","","","5","","13","","24.1","","99.63","","","","","","NA"
"-75.67","45.32","OTTAWA INTL A","6106001","2023-05-04 04:00","2023","05","04","04:00","5.8","","4.8","","94","","","","5","","13","","24.1","","99.69","","","","","","Cloudy"
"-75.67","45.32","OTTAWA INTL A","6106001","2023-05-04 05:00","2023","05","04","05:00","5.6","","4.3","","91","","","","6","","19","","24.1","","99.78","","","","","","Rain"
"-75.67","45.32","OTTAWA INTL A","6106001","2023-05-04 06:00","2023","05","04","06:00","5.6","","4.5","","93","","","","5","","13","","24.1","","99.87","","","","","","Rain"
"-75.67","45.32","OTTAWA INTL A","6106001","2023-05-04 07:00","2023","05","04","07:00","5.8","","4.5","","91","","","","6","","16","","24.1","","99.95","","","","","","Rain"
"-75.67","45.32","OTTAWA INTL A","6106001","2023-05-04 08:00","2023","05","04","08:00","6.0","","4.4","","89","","","","6","","17","","24.1","","100.03","","","","","","Rain"
"-75.67","45.32","OTTAWA INTL A","6106001","2023-05-04 09:00","2023","05","04","09:00","6.5","","4.6","","88","","","","4","","21","","24.1","","100.07","","","","","","Rain"
"-75.67","45.32","OTTAWA INTL A","6106001","2023-05-04 10:00","2023","05","04","10:00","7.5","","4.3","","81","","","","7","","17","","24.1","","100.15","","","","","","Rain"
"-75.67","45.32","OTTAWA INTL A","6106001","2023-05-04 11:00","2023","05","04","11:00","8.3","","4.2","","75","","","","6","","18","","24.1","","100.19","","","","","","Rain"
"-75.67","45.32","OTTAWA INTL A","6106001","2023-05-04 12:00","2023","05","04","12:00","8.8","","4.6","","75","","","","6","","13","","24.1","","100.23","","","","","","Rain"
"-75.67","45.32","OTTAWA INTL A","6106001","2023-05-04 13:00","2023","05","04","13:00","9.9","","4.8","","70","","","","4","","10","","24.1","","100.25","","","","","","Cloudy"
"-75.67","45.32","OTTAWA INTL A","6106001","2023-05-04 14:00","2023","05","04","14:00","9.8","","4.3","","69","","","","9","","17","","24.1","","100.28","","","","","","NA"
"-75.67","45.32","OTTAWA INTL A","6106001","2023-05-04 15:00","2023","05","04","15:00","9.3","","3.8","","68","","","","7","","13","","24.1","","100.31","","","","","","NA"
"-75.67","45.32","OTTAWA INTL A","6106001","2023-05-04 16:00","2023","05","04","16:00","9.9","","4.0","","66","","","","6","","13","","24.1","","100.35","","","","","","Cloudy"
"-75.67","45.32","OTTAWA INTL A","6106001","2023-05-04 17:00","2023","05","04","17:00","9.2","","3.7","","68","","","","7","","20","","24.1","","100.43","","","","","","Rain Showers"
"-75.67","45.32","OTTAWA INTL A","6106001","2023-05-04 18:00","2023","05","04","18:00","8.8","","4.5","","75","","","","5","","7","","24.1","","100.46","","","","","","NA"
"-75.67","45.32","OTTAWA INTL A","6106001","2023-05-04 19:00","2023","05","04","19:00","8.2","","4.3","","76","","","","6","","7","","24.1","","100.51","","","","","","Cloudy"
"-75.67","45.32","OTTAWA INTL A","6106001","2023-05-04 20:00","2023","05","04","20:00","7.9","","3.8","","76","","","","2","","6","","24.1","","100.56","","","","","","NA"
"-75.67","45.32","OTTAWA INTL A","6106001","2023-05-04 21:00","2023","05","04","21:00","7.9","","3.6","","74","","","","35","","9","","24.1","","100.62","","","","","","NA"
"-75.67","45.32","OTTAWA INTL A","6106001","2023-05-04 22:00","2023","05","04","22:00","7.3","","3.6","","77","","","","34","","9","","24.1","","100.64","","","","","","Mostly Cloudy"
"-75.67","45.32","OTTAWA INTL A","6106001","2023-05-04 23:00","2023","05","04","23:00","5.1","","3.8","","92","","","","33","","8","","24.1","","100.68","","","","","","NA"
"-75.67","45.32","OTTAWA INTL A","6106001","2023-05-05 00:00","2023","05","05","00:00","6.2","","4.0","","85","","","","34","","12","","24.1","","100.71","","","","","","NA"
"-75.67","45.32","OTTAWA INTL A","6106001","2023-05-05 01:00","2023","05","05","01:00","5.9","","3.6","","85","","","","1","","12","","24.1","","100.76","","","","","","Cloudy"
"-75.67","45.32","OTTAWA INTL A","6106001","2023-05-05 02:00","2023","05","05","02:00","6.5","","3.9","","83","","","","4","","15","","24.1","","100.80","","","","","","NA"
"-75.67","45.32","OTTAWA INTL A","6106001","2023-05-05 03:00","2023","05","05","03:00","6.5","","4.0","","84","","","","5","","13","","24.1","","100.84","","","","","","NA"
"-75.67","45.32","OTTAWA INTL A","6106001","2023-05-05 04:00","2023","05","05","04:00","6.4","","3.9","","84","","","","4","","14","","24.1","","100.88","","","","","","Mostly Cloudy"
"-75.67","45.32","OTTAWA INTL A","6106001","2023-05-05 05:00","2023","05","05","05:00","5.8","","3.9","","88","","","","4","","15","","24.1","","100.93","","","","","","NA"
"-75.67","45.32","OTTAWA INTL A","6106001","2023-05-05 06:00","2023","05","05","06:00","7.9","","4.5","","79","","","","5","","17","","24.1","","101.03","","","","","","NA"
"-75.67","45.32","OTTAWA INTL A","6106001","2023-05-05 07:00","2023","05","05","07:00","9.2","","5.0","","75","","","","6","","16","","24.1","","101.10","","","","","","Mainly Clear"
"-75.67","45.32","OTTAWA INTL A","6106001","2023-05-05 08:00","2023","05","05","08:00","10.3","","5.3","","71","","","","6","","15","","24.1","","101.14","","","","","","NA"
"-75.67","45.32","OTTAWA INTL A","6106001","2023-05-05 09:00","2023","05","05","09:00","11.1","","6.1","","71","","","","4","","5","","24.1","","101.17","","","","","","NA"
"-75.67","45.32","OTTAWA INTL A","6106001","2023-05-05 10:00","2023","05","05","10:00","12.0","","5.2","","63","","","","7","","13","","24.1","","101.20","","","","","","Mostly Cloudy"
"-75.67","45.32","OTTAWA INTL A","6106001","2023-05-05 11:00","2023","05","05","11:00","13.2","","5.5","","59","","","","5","","10","","24.1","","101.19","","","","","","NA"
"-75.67","45.32","OTTAWA INTL A","6106001","2023-05-05 12:00","2023","05","05","12:00","14.4","","5.4","","55","","","","3","","7","","24.1","","101.16","","","","","","NA"
"-75.67","45.32","OTTAWA INTL A","6106001","2023-05-05 13:00","2023","05","05","13:00","15.6","","4.3","","46","","","","3","","17","","24.1","","101.13","","","","","","Mostly Cloudy"
"-75.67","45.32","OTTAWA INTL A","6106001","2023-05-05 14:00","2023","05","05","14:00","15.8","","3.4","","43","","","","3","","17","","24.1","","101.09","","","","","","NA"
"-75.67","45.32","OTTAWA INTL A","6106001","2023-05-05 15:00","2023","05","05","15:00","17.4","","5.0","","44","","","","8","","7","","24.1","","101.04","","","","","","NA"
"-75.67","45.32","OTTAWA INTL A","6106001","2023-05-05 16:00","2023","05","05","16:00","17.5","","3.9","","40","","","","36","","6","","24.1","","101.02","","","","","","Mainly Clear"
"-75.67","45.32","OTTAWA INTL A","6106001","2023-05-05 17:00","2023","05","05","17:00","17.0","","5.2","","45","","","","30","","10","","24.1","","101.02","","","","","","NA"
"-75.67","45.32","OTTAWA INTL A","6106001","2023-05-05 18:00","2023","05","05","18:00","16.5","","3.9","","43","","","","31","","12","","24.1","","101.03","","","","","","NA"
"-75.67","45.32","OTTAWA INTL A","6106001","2023-05-05 19:00","2023","05","05","19:00","14.4","","4.0","","49","","","","4","","4","","24.1","","101.03","","","","","","Mainly Clear"
"-75.67","45.32","OTTAWA INTL A","6106001","2023-05-05 20:00","2023","05","05","20:00","13.3","","5.6","","59","","","","19","","7","","24.1","","101.06","","","","","","NA"
"-75.67","45.32","OTTAWA INTL A","6106001","2023-05-05 21:00","2023","05","05","21:00","12.2","","4.7","","60","","","","25","","8","","24.1","","101.10","","","","","","NA"
"-75.67","45.32","OTTAWA INTL A","6106001","2023-05-05 22:00","2023","05","05","22:00","11.2","","4.8","","65","","","","26","","9","","24.1","","101.10","","","","","","Clear"
"-75.67","45.32","OTTAWA INTL A","6106001","2023-05-05 23:00","2023","05","05","23:00","8.3","","4.8","","78","","","","28","","7","","24.1","","101.10","","","","","","NA"
"-75.67","45.32","OTTAWA INTL A","6106001","2023-05-06 00:00","2023","05","06","00:00","9.2","","4.0","","70","","","","24","","7","","24.1","","101.09","","","","","","NA"
"-75.67","45.32","OTTAWA INTL A","6106001","2023-05-06 01:00","2023","05","06","01:00","7.4","","3.8","","78","","","","30","","9","","24.1","","101.10","","","","","","Clear"
"-75.67","45.32","OTTAWA INTL A","6106001","2023-05-06 02:00","2023","05","06","02:00","5.4","","3.0","","84","","","","30","","10","","24.1","","101.10","","","","","","NA"
"-75.67","45.32","OTTAWA INTL A","6106001","2023-05-06 03:00","2023","05","06","03:00","6.2","","3.8","","85","","","","29","","10","","24.1","","101.10","","","","","","NA"
"-75.67","45.32","OTTAWA INTL A","6106001","2023-05-06 04:00","2023","05","06","04:00","5.5","","3.8","","89","","","","30","","14","","24.1","","101.14","","","","","","Clear"
"-75.67","45.32","OTTAWA INTL A","6106001","2023-05-06 05:00","2023","05","06","05:00","6.6","","4.5","","86","","","","29","","11","","24.1","","101.16","","","","","","NA"
"-75.67","45.32","OTTAWA INTL A","6106001","2023-05-06 06:00","2023","05","06","06:00","8.3","","5.1","","81","","","","30","","14","","24.1","","101.20","","","","","","NA"
"-75.67","45.32","OTTAWA INTL A","6106001","2023-05-06 07:00","2023","05","06","07:00","10.7","","5.0","","67","","","","29","","12","","24.1","","101.21","","","","","","Mainly Clear"
"-75.67","45.32","OTTAWA INTL A","6106001","2023-05-06 08:00","2023","05","06","08:00","12.9","","5.2","","59","","","","28","","12","","24.1","","101.21","","","","","","NA"
"-75.67","45.32","OTTAWA INTL A","6106001","2023-05-06 09:00","2023","05","06","09:00","15.9","","6.3","","53","","","","31","","9","","24.1","","101.17","","","","","","NA"
"-75.67","45.32","OTTAWA INTL A","6106001","2023-05-06 10:00","2023","05","06","10:00","18.2","","5.6","","43","","","","29","","13","","24.1","","101.13","","","","","","Mainly Clear"
"-75.67","45.32","OTTAWA INTL A","6106001","2023-05-06 11:00","2023","05","06","11:00","19.7","","2.1","","31","","","","31","","10","","24.1","","101.07","","","","","","NA"
"-75.67","45.32","OTTAWA INTL A","6106001","2023-05-06 12:00","2023","05","06","12:00","20.4","","-0.3","","25","","","","34","","19","","24.1","","101.01","","","","","","NA"
"-75.67","45.32","OTTAWA INTL A","6106001","2023-05-06 13:00","2023","05","06","13:00","19.8","","3.5","","34","","","","28","","17","","24.1","","100.93","","","","","","Mostly Cloudy"
"-75.67","45.32","OTTAWA INTL A","6106001","2023-05-06 14:00","2023","05","06","14:00","20.7","","3.8","","33","","","","27","","9","","24.1","","100.88","","","","","","NA"
"-75.67","45.32","OTTAWA INTL A","6106001","2023-05-06 15:00","2023","05","06","15:00","21.7","","3.2","","29","","","","25","","24","","24.1","","100.81","","","","","","NA"
"-75.67","45.32","OTTAWA INTL A","6106001","2023-05-06 16:00","2023","05","06","16:00","21.5","","1.8","","27","","","","29","","16","","24.1","","100.73","","","","","","Mostly Cloudy"
"-75.67","45.32","OTTAWA INTL A","6106001","2023-05-06 17:00","2023","05","06","17:00","20.8","","2.4","","29","","","","30","","18","","24.1","","100.66","","","","","","NA"
"-75.67","45.32","OTTAWA INTL A","6106001","2023-05-06 18:00","2023","05","06","18:00","19.4","","1.1","","29","","","","29","","22","","24.1","","100.64","","","","","","NA"
"-75.67","45.32","OTTAWA INTL A","6106001","2023-05-06 19:00","2023","05","06","19:00","16.9","","3.0","","39","","","","26","","10","","24.1","","100.64","","","","","","Clear"
"-75.67","45.32","OTTAWA INTL A","6106001","2023-05-06 20:00","2023","05","06","20:00","15.9","","2.7","","41","","","","25","","10","","24.1","","100.67","","","","","","NA"
"-75.67","45.32","OTTAWA INTL A","6106001","2023-05-06 21:00","2023","05","06","21:00","13.8","","3.1","","48","","","","25","","12","","24.1","","100.65","","","","","","NA"
"-75.67","45.32","OTTAWA INTL A","6106001","2023-05-06 22:00","2023","05","06","22:00","12.2","","3.1","","53","","","","26","","7","","24.1","","100.61","","","","","","Clear"
"-75.67","45.32","OTTAWA INTL A","6106001","2023-05-06 23:00","2023","05","06","23:00","11.9","","2.9","","54","","","","26","","7","","24.1","","100.59","","","","","","NA"
"-75.67","45.32","OTTAWA INTL A","6106001","2023-05-07 00:00","2023","05","07","00:00","10.0","","3.0","","61","","","","23","","7","","24.1","","100.57","","","","","","NA"
"-75.67","45.32","OTTAWA INTL A","6106001","2023-05-07 01:00","2023","05","07","01:00","9.2","","3.3","","67","","","","23","","7","","24.1","","100.55","","","","","","Clear"
"-75.67","45.32","OTTAWA INTL A","6106001","2023-05-07 02:00","2023","05","07","02:00","8.4","","3.3","","70","","","","23","","6","","24.1","","100.51","","","","","","NA"
"-75.67","45.32","OTTAWA INTL A","6106001","2023-05-07 03:00","2023","05","07","03:00","6.4","","2.8","","78","","","","23","","8","","24.1","","100.49","","","","","","NA"
"-75.67","45.32","OTTAWA INTL A","6106001","2023-05-07 04:00","2023","05","07","04:00","7.8","","4.2","","77","","","","25","","5","","24.1","","100.43","","","","","","Mainly Clear"
"-75.67","45.32","OTTAWA INTL A","6106001","2023-05-07 05:00","2023","05","07","05:00","7.0","","3.9","","81","","","","26","","5","","24.1","","100.40","","","","","","NA"
"-75.67","45.32","OTTAWA INTL A","6106001","2023-05-07 06:00","2023","05","07","06:00","9.3","","5.1","","75","","","","30","","12","","24.1","","100.41","","","","","","NA"
"-75.67","45.32","OTTAWA INTL A","6106001","2023-05-07 07:00","2023","05","07","07:00","12.4","","4.8","","59","","","","28","","9","","24.1","","100.35","","","","","","Mainly Clear"
"-75.67","45.32","OTTAWA INTL A","6106001","2023-05-07 08:00","2023","05","07","08:00","15.5","","5.0","","49","","","","28","","10","","24.1","","100.30","","","","","","NA"
"-75.67","45.32","OTTAWA INTL A","6106001","2023-05-07 09:00","2023","05","07","09:00","17.8","","4.1","","40","","","","28","","9","","24.1","","100.27","","","","","","NA"
"-75.67","45.32","OTTAWA INTL A","6106001","2023-05-07 10:00","2023","05","07","10:00","19.8","","4.5","","36","","","","25","","9","","24.1","","100.21","","","","","","Mostly Cloudy"
"-75.67","45.32","OTTAWA INTL A","6106001","2023-05-07 11:00","2023","05","07","11:00","21.2","","3.3","","30","","","","31","","23","","24.1","","100.15","","","","","","NA"
"-75.67","45.32","OTTAWA INTL A","6106001","2023-05-07 12:00","2023","05","07","12:00","21.1","","3.7","","32","","","","31","","24","","24.1","","100.01","","","","","","NA"
"-75.67","45.32","OTTAWA INTL A","6106001","2023-05-07 13:00","2023","05","07","13:00","21.0","","2.9","","30","","","","29","","17","","24.1","","99.93","","","","","","Mostly Cloudy"
"-75.67","45.32","OTTAWA INTL A","6106001","2023-05-07 14:00","2023","05","07","14:00","20.9","","3.8","","32","","","","28","","20","","24.1","","99.85","","","","","","NA"
"-75.67","45.32","OTTAWA INTL A","6106001","2023-05-07 15:00","2023","05","07","15:00","20.1","","3.9","","34","","","","28","","21","","24.1","","99.76","","","","","","NA"
"-75.67","45.32","OTTAWA INTL A","6106001","2023-05-07 16:00","2023","05","07","16:00","19.3","","3.7","","35","","","","28","","23","","24.1","","99.68","","","","","","Cloudy"
"-75.67","45.32","OTTAWA INTL A","6106001","2023-05-07 17:00","2023","05","07","17:00","19.0","","3.8","","36","","","","28","","17","","24.1","","99.62","","","","","","NA"
"-75.67","45.32","OTTAWA INTL A","6106001","2023-05-07 18:00","2023","05","07","18:00","18.0","","5.3","","43","","","","26","","14","","24.1","","99.60","","","","","","NA"
"-75.67","45.32","OTTAWA INTL A","6106001","2023-05-07 19:00","2023","05","07","19:00","17.0","","5.7","","47","","","","27","","14","","24.1","","99.58","","","","","","Mostly Cloudy"
"-75.67","45.32","OTTAWA INTL A","6106001","2023-05-07 20:00","2023","05","07","20:00","15.5","","6.3","","54","","","","25","","13","","24.1","","99.63","","","","","","NA"
"-75.67","45.32","OTTAWA INTL A","6106001","2023-05-07 21:00","2023","05","07","21:00","14.5","","6.5","","58","","","","23","","12","","24.1","","99.62","","","","","","NA"
"-75.67","45.32","OTTAWA INTL A","6106001","2023-05-07 22:00","2023","05","07","22:00","13.9","","7.1","","63","","","","26","","10","","24.1","","99.61","","","","","","Mostly Cloudy"
"-75.67","45.32","OTTAWA INTL A","6106001","2023-05-07 23:00","2023","05","07","23:00","11.2","","6.2","","71","","","","28","","11","","24.1","","99.61","","","","","","NA"
"-75.67","45.32","OTTAWA INTL A","6106001","2023-05-08 00:00","2023","05","08","00:00","10.4","","6.0","","74","","","","29","","11","","24.1","","99.60","","","","","","NA"
"-75.67","45.32","OTTAWA INTL A","6106001","2023-05-08 01:00","2023","05","08","01:00","9.0","","5.5","","78","","","","31","","16","","24.1","","99.59","","","","","","Clear"
"-75.67","45.32","OTTAWA INTL A","6106001","2023-05-08 02:00","2023","05","08","02:00","10.5","","1.9","","55","","","","33","","14","","24.1","","99.61","","","","","","NA"
"-75.67","45.32","OTTAWA INTL A","6106001","2023-05-08 03:00","2023","05","08","03:00","7.0","","2.1","","71","","","","32","","14","","24.1","","99.64","","","","","","NA"
"-75.67","45.32","OTTAWA INTL A","6106001","2023-05-08 04:00","2023","05","08","04:00","9.3","","1.2","","57","","","","33","","18","","24.1","","99.59","","","","","","Clear"
"-75.67","45.32","OTTAWA INTL A","6106001","2023-05-08 05:00","2023","05","08","05:00","9.4","","0.7","","54","","","","34","","17","","24.1","","99.66","","","","","","NA"
"-75.67","45.32","OTTAWA INTL A","6106001","2023-05-08 06:00","2023","05","08","06:00","10.0","","0.7","","52","","","","29","","14","","24.1","","99.85","","","","","","NA"
"-75.67","45.32","OTTAWA INTL A","6106001","2023-05-08 07:00","2023","05","08","07:00","10.9","","-0.2","","46","","","","31","","17","","24.1","","99.92","","","","","","Clear"
"-75.67","45.32","OTTAWA INTL A","6106001","2023-05-08 08:00","2023","05","08","08:00","12.1","","-0.2","","43","","","","1","","22","","24.1","","99.89","","","","","","NA"
"-75.67","45.32","OTTAWA INTL A","6106001","2023-05-08 09:00","2023","05","08","09:00","13.0","","-0.7","","38","","","","35","","14","","24.1","","99.88","","","","","","NA"
"-75.67","45.32","OTTAWA INTL A","6106001","2023-05-08 10:00","2023","05","08","10:00","14.2","","-1.0","","35","","","","34","","17","","24.1","","99.91","","","","","","Mainly Clear"
"-75.67","45.32","OTTAWA INTL A","6106001","2023-05-08 11:00","2023","05","08","11:00","14.1","","-1.8","","33","","","","31","","21","","24.1","","99.94","","","","","","NA"
"-75.67","45.32","OTTAWA INTL A","6106001","2023-05-08 12:00","2023","05","08","12:00","15.3","","-2.3","","30","","","","34","","24","","24.1","","99.94","","","","","","NA"
"-75.67","45.32","OTTAWA INTL A","6106001","2023-05-08 13:00","2023","05","08","13:00","15.6","","-2.4","","29","","","","34","","26","","24.1","","99.90","","","","","","Mainly Clear"
"-75.67","45.32","OTTAWA INTL A","6106001","2023-05-08 14:00","2023","05","08","14:00","16.4","","-3.5","","25","","","","33","","23","","24.1","","99.83","","","","","","NA"
"-75.67","45.32","OTTAWA INTL A","6106001","2023-05-08 15:00","2023","05","08","15:00","17.0","","-4.3","","23","","","","34","","20","","24.1","","99.81","","","","","","NA"
"-75.67","45.32","OTTAWA INTL A","6106001","2023-05-08 16:00","2023","05","08","16:00","16.6","","-5.5","","21","","","","35","","16","","24.1","","99.81","","","","","","Mainly Clear"
"-75.67","45.32","OTTAWA INTL A","6106001","2023-05-08 17:00","2023","05","08","17:00","15.9","","-5.5","","22","","","","35","","22","","24.1","","99.85","","","","","","NA"
"-75.67","45.32","OTTAWA INTL A","6106001","2023-05-08 18:00","2023","05","08","18:00","15.1","","-7.2","","21","","","","34","","26","","24.1","","99.86","","","","","","NA"
"-75.67","45.32","OTTAWA INTL A","6106001","2023-05-08 19:00","2023","05","08","19:00","13.5","","-6.3","","25","","","","34","","16","","24.1","","99.92","","","","","","Mostly Cloudy"
"-75.67","45.32","OTTAWA INTL A","6106001","2023-05-08 20:00","2023","05","08","20:00","12.3","","-5.5","","28","","","","36","","17","","24.1","","100.02","","","","","","NA"
"-75.67","45.32","OTTAWA INTL A","6106001","2023-05-08 21:00","2023","05","08","21:00","10.7","","-5.7","","31","","","","1","","15","","24.1","","100.09","","","","","","NA"
"-75.67","45.32","OTTAWA INTL A","6106001","2023-05-08 22:00","2023","05","08","22:00","10.1","","-5.9","","32","","","","1","","17","","24.1","","100.10","","","","","","Mostly Cloudy"
"-75.67","45.32","OTTAWA INTL A","6106001","2023-05-08 23:00","2023","05","08","23:00","9.1","","-5.5","","35","","","","2","","18","","24.1","","100.15","","","","","","NA"
"-75.67","45.32","OTTAWA INTL A","6106001","2023-05-09 00:00","2023","05","09","00:00","8.5","","-5.6","","36","","","","36","","8","","24.1","","100.19","","","","","","NA"
"-75.67","45.32","OTTAWA INTL A","6106001","2023-05-09 01:00","2023","05","09","01:00","7.6","","-5.0","","41","","","","36","","12","","24.1","","100.19","","","","","","Cloudy"
"-75.67","45.32","OTTAWA INTL A","6106001","2023-05-09 02:00","2023","05","09","02:00","6.9","","-4.7","","43","","","","36","","8","","24.1","","100.20","","","","","","NA"
"-75.67","45.32","OTTAWA INTL A","6106001","2023-05-09 03:00","2023","05","09","03:00","5.6","","-4.0","","50","","","","1","","8","","24.1","","100.22","","","","","","NA"
"-75.67","45.32","OTTAWA INTL A","6106001","2023-05-09 04:00","2023","05","09","04:00","5.6","","-4.0","","50","","","","1","","8","","24.1","","100.26","","","","","","Mostly Cloudy"
"-75.67","45.32","OTTAWA INTL A","6106001","2023-05-09 05:00","2023","05","09","05:00","5.2","","-2.5","","58","","","","32","","5","","24.1","","100.31","","","","","","NA"
"-75.67","45.32","OTTAWA INTL A","6106001","2023-05-09 06:00","2023","05","09","06:00","7.2","","-2.1","","51","","","","35","","8","","24.1","","100.39","","","","","","NA"
"-75.67","45.32","OTTAWA INTL A","6106001","2023-05-09 07:00","2023","05","09","07:00","9.6","","-3.1","","41","","","","35","","14","","24.1","","100.44","","","","","","Mainly Clear"
"-75.67","45.32","OTTAWA INTL A","6106001","2023-05-09 08:00","2023","05","09","08:00","10.7","","-1.6","","42","","","","35","","10","","24.1","","100.48","","","","","","NA"
"-75.67","45.32","OTTAWA INTL A","6106001","2023-05-09 09:00","2023","05","09","09:00","12.6","","-3.7","","32","","","","32","","12","","24.1","","100.48","","","","","","NA"
"-75.67","45.32","OTTAWA INTL A","6106001","2023-05-09 10:00","2023","05","09","10:00","13.3","","-3.5","","31","","","","1","","17","","24.1","","100.48","","","","","","Mainly Clear"
"-75.67","45.32","OTTAWA INTL A","6106001","2023-05-09 11:00","2023","05","09","11:00","14.1","","-3.7","","29","","","","1","","21","","24.1","","100.48","","","","","","NA"
"-75.67","45.32","OTTAWA INTL A","6106001","2023-05-09 12:00","2023","05","09","12:00","14.7","","-2.1","","31","","","","31","","18","","24.1","","100.47","","","","","","NA"
"-75.67","45.32","OTTAWA INTL A","6106001","2023-05-09 13:00","2023","05","09","13:00","16.1","","-1.9","","29","","","","33","","13","","24.1","","100.47","","","","","","Mainly Clear"
"-75.67","45.32","OTTAWA INTL A","6106001","2023-05-09 14:00","2023","05","09","14:00","15.7","","-2.9","","27","","","","31","","10","","24.1","","100.43","","","","","","NA"
"-75.67","45.32","OTTAWA INTL A","6106001","2023-05-09 15:00","2023","05","09","15:00","16.7","","-4.2","","23","","","","32","","16","","24.1","","100.41","","","","","","NA"
"-75.67","45.32","OTTAWA INTL A","6106001","2023-05-09 16:00","2023","05","09","16:00","17.3","","-3.9","","23","","","","35","","18","","24.1","","100.38","","","","","","Mainly Clear"
"-75.67","45.32","OTTAWA INTL A","6106001","2023-05-09 17:00","2023","05","09","17:00","16.8","","-4.0","","24","","","","4","","4","","24.1","","100.36","","","","","","NA"
"-75.67","45.32","OTTAWA INTL A","6106001","2023-05-09 18:00","2023","05","09","18:00","16.5","","-1.9","","28","","","","36","","2","","24.1","","100.38","","","","","","NA"
"-75.67","45.32","OTTAWA INTL A","6106001","2023-05-09 19:00","2023","05","09","19:00","14.0","","-2.8","","31","","","","36","","3","","24.1","","100.40","","","","","","Clear"
"-75.67","45.32","OTTAWA INTL A","6106001","2023-05-09 20:00","2023","05","09","20:00","12.7","","-3.5","","32","","","","17","","8","","24.1","","100.43","","","","","","NA"
"-75.67","45.32","OTTAWA INTL A","6106001","2023-05-09 21:00","2023","05","09","21:00","10.3","","-2.0","","42","","","","7","","8","","24.1","","100.48","","","","","","NA"
"-75.67","45.32","OTTAWA INTL A","6106001","2023-05-09 22:00","2023","05","09","22:00","9.8","","-3.1","","40","","","","11","","5","","24.1","","100.50","","","","","","Clear"
"-75.67","45.32","OTTAWA INTL A","6106001","2023-05-09 23:00","2023","05","09","23:00","10.1","","-6.8","","30","","","","17","","8","","24.1","","100.52","","","","","","NA"
"-75.67","45.32","OTTAWA INTL A","6106001","2023-05-10 00:00","2023","05","10","00:00","6.6","","-4.8","","44","","","","18","","9","","24.1","","100.53","","","","","","NA"
"-75.67","45.32","OTTAWA INTL A","6106001","2023-05-10 01:00","2023","05","10","01:00","5.2","","-0.7","","66","","","","20","","8","","24.1","","100.53","","","","","","Clear"
"-75.67","45.32","OTTAWA INTL A","6106001","2023-05-10 02:00","2023","05","10","02:00","5.0","","0.4","","72","","","","21","","7","","24.1","","100.55","","","","","","NA"
"-75.67","45.32","OTTAWA INTL A","6106001","2023-05-10 03:00","2023","05","10","03:00","5.3","","1.2","","75","","","","27","","5","","24.1","","100.56","","","","","","NA"
"-75.67","45.32","OTTAWA INTL A","6106001","2023-05-10 04:00","2023","05","10","04:00","5.1","","0.7","","73","","","","29","","9","","24.1","","100.57","","","","","","Clear"
"-75.67","45.32","OTTAWA INTL A","6106001","2023-05-10 05:00","2023","05","10","05:00","4.0","","1.0","","81","","","","22","","4","","24.1","","100.59","","","","","","NA"
"-75.67","45.32","OTTAWA INTL A","6106001","2023-05-10 06:00","2023","05","10","06:00","5.3","","3.0","","85","","","","24","","9","","24.1","","100.66","","","","","","NA"
"-75.67","45.32","OTTAWA INTL A","6106001","2023-05-10 07:00","2023","05","10","07:00","10.0","","1.8","","57","","","","27","","17","","24.1","","100.69","","","","","","Mainly Clear"
"-75.67","45.32","OTTAWA INTL A","6106001","2023-05-10 08:00","2023","05","10","08:00","13.2","","0.9","","43","","","","28","","18","","24.1","","100.70","","","","","","NA"
"-75.67","45.32","OTTAWA INTL A","6106001","2023-05-10 09:00","2023","05","10","09:00","15.2","","1.7","","40","","","","27","","21","","24.1","","100.69","","","","","","NA"
"-75.67","45.32","OTTAWA INTL A","6106001","2023-05-10 10:00","2023","05","10","10:00","17.6","","3.1","","38","","","","27","","18","","24.1","","100.63","","","","","","Clear"
"-75.67","45.32","OTTAWA INTL A","6106001","2023-05-10 11:00","2023","05","10","11:00","19.5","","1.4","","30","","","","29","","23","","24.1","","100.56","","","","","","NA"
"-75.67","45.32","OTTAWA INTL A","6106001","2023-05-10 12:00","2023","05","10","12:00","20.4","","2.7","","31","","","","29","","22","","24.1","","100.46","","","","","","NA"
"-75.67","45.32","OTTAWA INTL A","6106001","2023-05-10 13:00","2023","05","10","13:00","21.6","","1.8","","27","","","","27","","24","","24.1","","100.39","","","","","","Clear"
"-75.67","45.32","OTTAWA INTL A","6106001","2023-05-10 14:00","2023","05","10","14:00","21.9","","2.4","","27","","","","28","","26","","24.1","","100.32","","","","","","NA"
"-75.67","45.32","OTTAWA INTL A","6106001","2023-05-10 15:00","2023","05","10","15:00","22.2","","3.0","","28","","","","29","","18","","24.1","","100.24","","","","","","NA"
"-75.67","45.32","OTTAWA INTL A","6106001","2023-05-10 16:00","2023","05","10","16:00","22.5","","3.9","","29","","","","31","","20","","24.1","","100.20","","","","","","Clear"
"-75.67","45.32","OTTAWA INTL A","6106001","2023-05-10 17:00","2023","05","10","17:00","22.2","","3.3","","29","","","","26","","26","","24.1","","100.18","","","","","","NA"
"-75.67","45.32","OTTAWA INTL A","6106001","2023-05-10 18:00","2023","05","10","18:00","20.8","","3.1","","31","","","","28","","19","","24.1","","100.17","","","","","","NA"
"-75.67","45.32","OTTAWA INTL A","6106001","2023-05-10 19:00","2023","05","10","19:00","17.3","","4.3","","42","","","","26","","14","","24.1","","100.16","","","","","","Mainly Clear"
"-75.67","45.32","OTTAWA INTL A","6106001","2023-05-10 20:00","2023","05","10","20:00","17.3","","3.2","","39","","","","25","","10","","24.1","","100.20","","","","","","NA"
"-75.67","45.32","OTTAWA INTL A","6106001","2023-05-10 21:00","2023","05","10","21:00","14.9","","5.9","","55","","","","21","","11","","24.1","","100.27","","","","","","NA"
"-75.67","45.32","OTTAWA INTL A","6106001","2023-05-10 22:00","2023","05","10","22:00","13.5","","5.4","","58","","","","21","","11","","24.1","","100.28","","","","","","Mainly Clear"
"-75.67","45.32","OTTAWA INTL A","6106001","2023-05-10 23:00","2023","05","10","23:00","11.6","","5.6","","67","","","","21","","10","","24.1","","100.26","","","","","","NA"
"-75.67","45.32","OTTAWA INTL A","6106001","2023-05-11 00:00","2023","05","11","00:00","11.4","","5.5","","67","","","","24","","13","","24.1","","100.28","","","","","","NA"
"-75.67","45.32","OTTAWA INTL A","6106001","2023-05-11 01:00","2023","05","11","01:00","10.6","","4.7","","67","","","","25","","12","","24.1","","100.27","","","","","","Clear"
"-75.67","45.32","OTTAWA INTL A","6106001","2023-05-11 02:00","2023","05","11","02:00","9.8","","4.3","","69","","","","27","","14","","24.1","","100.26","","","","","","NA"
"-75.67","45.32","OTTAWA INTL A","6106001","2023-05-11 03:00","2023","05","11","03:00","9.3","","3.9","","69","","","","25","","12","","24.1","","100.28","","","","","","NA"
"-75.67","45.32","OTTAWA INTL A","6106001","2023-05-11 04:00","2023","05","11","04:00","9.8","","3.9","","66","","","","27","","14","","24.1","","100.32","","","","","","Clear"
"-75.67","45.32","OTTAWA INTL A","6106001","2023-05-11 05:00","2023","05","11","05:00","8.6","","3.7","","71","","","","25","","12","","24.1","","100.36","","","","","","NA"
"-75.67","45.32","OTTAWA INTL A","6106001","2023-05-11 06:00","2023","05","11","06:00","12.1","","4.6","","60","","","","27","","16","","24.1","","100.42","","","","","","NA"
"-75.67","45.32","OTTAWA INTL A","6106001","2023-05-11 07:00","2023","05","11","07:00","13.1","","4.8","","57","","","","28","","21","","24.1","","100.49","","","","","","Rain Showers"
"-75.67","45.32","OTTAWA INTL A","6106001","2023-05-11 08:00","2023","05","11","08:00","16.6","","6.0","","49","","","","35","","4","","24.1","","100.45","","","","","","NA"
"-75.67","45.32","OTTAWA INTL A","6106001","2023-05-11 09:00","2023","05","11","09:00","19.0","","6.6","","44","","","","25","","8","","24.1","","100.41","","","","","","NA"
"-75.67","45.32","OTTAWA INTL A","6106001","2023-05-11 10:00","2023","05","11","10:00","21.1","","9.2","","46","","","","23","","12","","24.1","","100.45","","","","","","Clear"
"-75.67","45.32","OTTAWA INTL A","6106001","2023-05-11 11:00","2023","05","11","11:00","21.9","","10.6","","48","","","","21","","14","","24.1","","100.40","","","","","","NA"
"-75.67","45.32","OTTAWA INTL A","6106001","2023-05-11 12:00","2023","05","11","12:00","23.1","","7.0","","35","","","","25","","22","","24.1","","100.33","","","","","","NA"
"-75.67","45.32","OTTAWA INTL A","6106001","2023-05-11 13:00","2023","05","11","13:00","24.7","","5.1","","28","","","","27","","20","","24.1","","100.26","","","","","","Clear"
"-75.67","45.32","OTTAWA INTL A","6106001","2023-05-11 14:00","2023","05","11","14:00","24.8","","5.7","","29","","","","27","","20","","24.1","","100.21","","","","","","NA"
"-75.67","45.32","OTTAWA INTL A","6106001","2023-05-11 15:00","2023","05","11","15:00","25.3","","4.4","","25","","","","31","","23","","24.1","","100.16","","","","","","NA"
"-75.67","45.32","OTTAWA INTL A","6106001","2023-05-11 16:00","2023","05","11","16:00","26.0","","5.4","","26","","","","32","","22","","24.1","","100.15","","25","","","","Mostly Cloudy"
"-75.67","45.32","OTTAWA INTL A","6106001","2023-05-11 17:00","2023","05","11","17:00","23.4","","8.6","","38","","","","22","","18","","24.1","","100.15","","","","","","NA"
"-75.67","45.32","OTTAWA INTL A","6106001","2023-05-11 18:00","2023","05","11","18:00","22.3","","9.8","","45","","","","21","","12","","24.1","","100.11","","","","","","NA"
"-75.67","45.32","OTTAWA INTL A","6106001","2023-05-11 19:00","2023","05","11","19:00","21.2","","9.8","","48","","","","18","","15","","24.1","","100.09","","","","","","Mostly Cloudy"
"-75.67","45.32","OTTAWA INTL A","6106001","2023-05-11 20:00","2023","05","11","20:00","18.2","","9.8","","57","","","","16","","12","","24.1","","100.10","","","","","","NA"
"-75.67","45.32","OTTAWA INTL A","6106001","2023-05-11 21:00","2023","05","11","21:00","17.1","","9.1","","59","","","","15","","11","","24.1","","100.06","","","","","","NA"
"-75.67","45.32","OTTAWA INTL A","6106001","2023-05-11 22:00","2023","05","11","22:00","16.6","","9.0","","60","","","","22","","10","","24.1","","100.00","","","","","","Mostly Cloudy"
"-75.67","45.32","OTTAWA INTL A","6106001","2023-05-11 23:00","2023","05","11","23:00","17.0","","9.4","","60","","","","26","","11","","24.1","","100.00","","","","","","NA"
"-75.67","45.32","OTTAWA INTL A","6106001","2023-05-12 00:00","2023","05","12","00:00","19.8","","8.0","","46","","","","29","","23","","24.1","","100.02","","","","","","NA"
"-75.67","45.32","OTTAWA INTL A","6106001","2023-05-12 01:00","2023","05","12","01:00","16.7","","12.1","","74","","","","28","","17","","24.1","","100.11","","","","","","Cloudy"
"-75.67","45.32","OTTAWA INTL A","6106001","2023-05-12 02:00","2023","05","12","02:00","16.5","","11.3","","71","","","","28","","22","","24.1","","100.08","","","","","","NA"
"-75.67","45.32","OTTAWA INTL A","6106001","2023-05-12 03:00","2023","05","12","03:00","13.9","","11.5","","85","","","","31","","11","","24.1","","100.12","","","","","","NA"
"-75.67","45.32","OTTAWA INTL A","6106001","2023-05-12 04:00","2023","05","12","04:00","13.1","","11.8","","91","","","","26","","8","","24.1","","100.14","","","","","","Mainly Clear"
"-75.67","45.32","OTTAWA INTL A","6106001","2023-05-12 05:00","2023","05","12","05:00","14.1","","12.3","","89","","","","28","","12","","24.1","","100.22","","","","","","NA"
"-75.67","45.32","OTTAWA INTL A","6106001","2023-05-12 06:00","2023","05","12","06:00","14.6","","12.6","","88","","","","24","","5","","24.1","","100.29","","","","","","NA"
"-75.67","45.32","OTTAWA INTL A","6106001","2023-05-12 07:00","2023","05","12","07:00","17.2","","12.6","","74","","","","28","","13","","24.1","","100.31","","","","","","Clear"
"-75.67","45.32","OTTAWA INTL A","6106001","2023-05-12 08:00","2023","05","12","08:00","18.0","","12.1","","68","","","","31","","13","","24.1","","100.34","","","","","","NA"
"-75.67","45.32","OTTAWA INTL A","6106001","2023-05-12 09:00","2023","05","12","09:00","19.5","","12.7","","65","","","","27","","14","","24.1","","100.38","","","","","","NA"
"-75.67","45.32","OTTAWA INTL A","6106001","2023-05-12 10:00","2023","05","12","10:00","20.3","","11.7","","57","","","","28","","15","","24.1","","100.37","","","","","","Mainly Clear"
"-75.67","45.32","OTTAWA INTL A","6106001","2023-05-12 11:00","2023","05","12","11:00","21.9","","12.3","","54","","","","28","","14","","24.1","","100.32","","","","","","NA"
"-75.67","45.32","OTTAWA INTL A","6106001","2023-05-12 12:00","2023","05","12","12:00","23.8","","12.2","","48","","","","28","","17","","24.1","","100.27","","26","","","","NA"
"-75.67","45.32","OTTAWA INTL A","6106001","2023-05-12 13:00","2023","05","12","13:00","24.9","","12.9","","47","","","","32","","23","","24.1","","100.22","","28","","","","Mainly Clear"
"-75.67","45.32","OTTAWA INTL A","6106001","2023-05-12 14:00","2023","05","12","14:00","25.1","","10.3","","39","","","","27","","25","","24.1","","100.17","","27","","","","NA"
"-75.67","45.32","OTTAWA INTL A","6106001","2023-05-12 15:00","2023","05","12","15:00","25.7","","10.7","","38","","","","31","","20","","24.1","","100.13","","27","","","","NA"
"-75.67","45.32","OTTAWA INTL A","6106001","2023-05-12 16:00","2023","05","12","16:00","25.5","","9.2","","35","","","","29","","21","","24.1","","100.10","","26","","","","Mostly Cloudy"
"-75.67","45.32","OTTAWA INTL A","6106001","2023-05-12 17:00","2023","05","12","17:00","25.2","","8.7","","34","","","","29","","22","","24.1","","100.09","","26","","","","NA"
"-75.67","45.32","OTTAWA INTL A","6106001","2023-05-12 18:00","2023","05","12","18:00","24.3","","8.3","","36","","","","28","","18","","24.1","","100.07","","25","","","","NA"
"-75.67","45.32","OTTAWA INTL A","6106001","2023-05-12 19:00","2023","05","12","19:00","22.6","","7.7","","38","","","","29","","17","","24.1","","100.07","","","","","","Mostly Cloudy"
"-75.67","45.32","OTTAWA INTL A","6106001","2023-05-12 20:00","2023","05","12","20:00","21.2","","7.7","","41","","","","28","","18","","24.1","","100.11","","","","","","NA"
"-75.67","45.32","OTTAWA INTL A","6106001","2023-05-12 21:00","2023","05","12","21:00","18.3","","7.4","","49","","","","31","","17","","24.1","","100.20","","","","","","NA"
"-75.67","45.32","OTTAWA INTL A","6106001","2023-05-12 22:00","2023","05","12","22:00","17.6","","4.5","","42","","","","31","","17","","24.1","","100.25","","","","","","Mostly Cloudy"
"-75.67","45.32","OTTAWA INTL A","6106001","2023-05-12 23:00","2023","05","12","23:00","18.0","","3.8","","39","","","","36","","20","","24.1","","100.30","","","","","","NA"
"-75.67","45.32","OTTAWA INTL A","6106001","2023-05-13 00:00","2023","05","13","00:00","16.9","","4.0","","42","","","","35","","39","","24.1","","100.40","","","","","","NA"
"-75.67","45.32","OTTAWA INTL A","6106001","2023-05-13 01:00","2023","05","13","01:00","15.1","","2.9","","43","","","","36","","29","","24.1","","100.45","","","","","","Mainly Clear"
"-75.67","45.32","OTTAWA INTL A","6106001","2023-05-13 02:00","2023","05","13","02:00","13.4","","2.6","","48","","","","2","","21","","24.1","","100.50","","","","","","NA"
"-75.67","45.32","OTTAWA INTL A","6106001","2023-05-13 03:00","2023","05","13","03:00","10.0","","2.5","","59","","","","5","","8","","24.1","","100.52","","","","","","NA"
"-75.67","45.32","OTTAWA INTL A","6106001","2023-05-13 04:00","2023","05","13","04:00","9.7","","2.9","","62","","","","16","","5","","24.1","","100.58","","","","","","Clear"
"-75.67","45.32","OTTAWA INTL A","6106001","2023-05-13 05:00","2023","05","13","05:00","6.5","","2.4","","75","","","","23","","5","","24.1","","100.63","","","","","","NA"
"-75.67","45.32","OTTAWA INTL A","6106001","2023-05-13 06:00","2023","05","13","06:00","9.9","","5.3","","73","","","","23","","9","","24.1","","100.70","","","","","","NA"
"-75.67","45.32","OTTAWA INTL A","6106001","2023-05-13 07:00","2023","05","13","07:00","13.7","","5.8","","59","","","","25","","11","","24.1","","100.70","","","","","","Clear"
"-75.67","45.32","OTTAWA INTL A","6106001","2023-05-13 08:00","2023","05","13","08:00","15.8","","5.1","","49","","","","25","","22","","24.1","","100.68","","","","","","NA"
"-75.67","45.32","OTTAWA INTL A","6106001","2023-05-13 09:00","2023","05","13","09:00","17.4","","5.3","","45","","","","28","","20","","24.1","","100.67","","","","","","NA"
"-75.67","45.32","OTTAWA INTL A","6106001","2023-05-13 10:00","2023","05","13","10:00","18.5","","4.1","","38","","","","28","","27","","24.1","","100.63","","","","","","Clear"
"-75.67","45.32","OTTAWA INTL A","6106001","2023-05-13 11:00","2023","05","13","11:00","19.0","","2.0","","32","","","","29","","29","","24.1","","100.60","","","","","","NA"
"-75.67","45.32","OTTAWA INTL A","6106001","2023-05-13 12:00","2023","05","13","12:00","20.0","","1.9","","30","","","","31","","30","","24.1","","100.59","","","","","","NA"
"-75.67","45.32","OTTAWA INTL A","6106001","2023-05-13 13:00","2023","05","13","13:00","19.9","","0.9","","28","","","","31","","27","","24.1","","100.59","","","","","","Clear"
"-75.67","45.32","OTTAWA INTL A","6106001","2023-05-13 14:00","2023","05","13","14:00","19.7","","-0.5","","25","","","","35","","34","","24.1","","100.59","","","","","","NA"
"-75.67","45.32","OTTAWA INTL A","6106001","2023-05-13 15:00","2023","05","13","15:00","19.0","","-1.3","","25","","","","32","","30","","24.1","","100.63","","","","","","NA"
"-75.67","45.32","OTTAWA INTL A","6106001","2023-05-13 16:00","2023","05","13","16:00","18.7","","-0.6","","27","","","","35","","26","","24.1","","100.65","","","","","","Mainly Clear"
"-75.67","45.32","OTTAWA INTL A","6106001","2023-05-13 17:00","2023","05","13","17:00","17.7","","0.2","","31","","","","33","","27","","24.1","","100.74","","","","","","NA"
"-75.67","45.32","OTTAWA INTL A","6106001","2023-05-13 18:00","2023","05","13","18:00","16.5","","0.1","","33","","","","33","","26","","24.1","","100.80","","","","","","NA"
"-75.67","45.32","OTTAWA INTL A","6106001","2023-05-13 19:00","2023","05","13","19:00","14.6","","0.0","","36","","","","36","","21","","24.1","","100.88","","","","","","Mainly Clear"
"-75.67","45.32","OTTAWA INTL A","6106001","2023-05-13 20:00","2023","05","13","20:00","12.9","","-0.4","","40","","","","2","","35","","24.1","","100.94","","","","","","NA"
"-75.67","45.32","OTTAWA INTL A","6106001","2023-05-13 21:00","2023","05","13","21:00","11.6","","-0.2","","44","","","","3","","30","","24.1","","101.05","","","","","","NA"
"-75.67","45.32","OTTAWA INTL A","6106001","2023-05-13 22:00","2023","05","13","22:00","10.7","","-0.2","","47","","","","1","","17","","24.1","","101.10","","","","","","Clear"
"-75.67","45.32","OTTAWA INTL A","6106001","2023-05-13 23:00","2023","05","13","23:00","9.6","","0.0","","51","","","","36","","15","","24.1","","101.15","","","","","","NA"
"-75.67","45.32","OTTAWA INTL A","6106001","2023-05-14 00:00","2023","05","14","00:00","9.0","","-0.3","","52","","","","36","","25","","24.1","","101.18","","","","","","NA"
"-75.67","45.32","OTTAWA INTL A","6106001","2023-05-14 01:00","2023","05","14","01:00","7.8","","-0.6","","55","","","","36","","22","","24.1","","101.16","","","","","","Clear"
"-75.67","45.32","OTTAWA INTL A","6106001","2023-05-14 02:00","2023","05","14","02:00","7.3","","-0.8","","56","","","","34","","19","","24.1","","101.22","","","","","","NA"
"-75.67","45.32","OTTAWA INTL A","6106001","2023-05-14 03:00","2023","05","14","03:00","6.2","","-1.0","","60","","","","36","","16","","24.1","","101.26","","","","","","NA"
"-75.67","45.32","OTTAWA INTL A","6106001","2023-05-14 04:00","2023","05","14","04:00","5.5","","-3.0","","54","","","","36","","19","","24.1","","101.32","","","","","","Clear"
"-75.67","45.32","OTTAWA INTL A","6106001","2023-05-14 05:00","2023","05","14","05:00","4.8","","-2.7","","59","","","","34","","12","","24.1","","101.37","","","","","","NA"
"-75.67","45.32","OTTAWA INTL A","6106001","2023-05-14 06:00","2023","05","14","06:00","6.2","","-1.7","","57","","","","32","","18","","24.1","","101.42","","","","","","NA"
"-75.67","45.32","OTTAWA INTL A","6106001","2023-05-14 07:00","2023","05","14","07:00","7.8","","-1.5","","51","","","","33","","13","","24.1","","101.47","","","","","","Mainly Clear"
"-75.67","45.32","OTTAWA INTL A","6106001","2023-05-14 08:00","2023","05","14","08:00","9.1","","-0.4","","51","","","","36","","12","","24.1","","101.47","","","","","","NA"
"-75.67","45.32","OTTAWA INTL A","6106001","2023-05-14 09:00","2023","05","14","09:00","10.7","","0.0","","47","","","","32","","18","","24.1","","101.48","","","","","","NA"
"-75.67","45.32","OTTAWA INTL A","6106001","2023-05-14 10:00","2023","05","14","10:00","12.0","","-0.4","","42","","","","32","","27","","24.1","","101.43","","","","","","Clear"
"-75.67","45.32","OTTAWA INTL A","6106001","2023-05-14 11:00","2023","05","14","11:00","12.5","","-0.7","","40","","","","33","","16","","24.1","","101.39","","","","","","NA"
"-75.67","45.32","OTTAWA INTL A","6106001","2023-05-14 12:00","2023","05","14","12:00","14.3","","-1.0","","35","","","","32","","18","","24.1","","101.36","","","","","","NA"
"-75.67","45.32","OTTAWA INTL A","6106001","2023-05-14 13:00","2023","05","14","13:00","15.6","","-2.0","","30","","","","33","","29","","24.1","","101.30","","","","","","Clear"
"-75.67","45.32","OTTAWA INTL A","6106001","2023-05-14 14:00","2023","05","14","14:00","16.3","","-2.4","","28","","","","33","","26","","24.1","","101.27","","","","","","NA"
"-75.67","45.32","OTTAWA INTL A","6106001","2023-05-14 15:00","2023","05","14","15:00","16.7","","-3.2","","25","","","","32","","28","","24.1","","101.27","","","","","","NA"
"-75.67","45.32","OTTAWA INTL A","6106001","2023-05-14 16:00","2023","05","14","16:00","17.0","","-3.4","","24","","","","35","","21","","24.1","","101.23","","","","","","Clear"
"-75.67","45.32","OTTAWA INTL A","6106001","2023-05-14 17:00","2023","05","14","17:00","17.3","","-3.2","","24","","","","33","","26","","24.1","","101.18","","","","","","NA"
"-75.67","45.32","OTTAWA INTL A","6106001","2023-05-14 18:00","2023","05","14","18:00","16.6","","-3.9","","24","","","","33","","28","","24.1","","101.19","","","","","","NA"
"-75.67","45.32","OTTAWA INTL A","6106001","2023-05-14 19:00","2023","05","14","19:00","15.6","","-4.1","","25","","","","33","","23","","24.1","","101.22","","","","","","Mainly Clear"
"-75.67","45.32","OTTAWA INTL A","6106001","2023-05-14 20:00","2023","05","14","20:00","11.8","","-2.8","","36","","","","31","","13","","24.1","","101.22","","","","","","NA"
"-75.67","45.32","OTTAWA INTL A","6106001","2023-05-14 21:00","2023","05","14","21:00","11.6","","-2.9","","36","","","","31","","9","","24.1","","101.25","","","","","","NA"
"-75.67","45.32","OTTAWA INTL A","6106001","2023-05-14 22:00","2023","05","14","22:00","9.4","","-1.5","","47","","","","26","","8","","24.1","","101.25","","","","","","Clear"
"-75.67","45.32","OTTAWA INTL A","6106001","2023-05-14 23:00","2023","05","14","23:00","8.4","","-0.8","","52","","","","26","","5","","24.1","","101.19","","","","","","NA"
"-75.67","45.32","OTTAWA INTL A","6106001","2023-05-15 00:00","2023","05","15","00:00","6.5","","-1.5","","57","","","","24","","9","","24.1","","101.17","","","","","","NA"
"-75.67","45.32","OTTAWA INTL A","6106001","2023-05-15 01:00","2023","05","15","01:00","6.0","","-1.9","","57","","","","25","","12","","24.1","","101.09","","","","","","Clear"
"-75.67","45.32","OTTAWA INTL A","6106001","2023-05-15 02:00","2023","05","15","02:00","5.4","","-1.3","","62","","","","24","","13","","24.1","","101.09","","","","","","NA"
"-75.67","45.32","OTTAWA INTL A","6106001","2023-05-15 03:00","2023","05","15","03:00","5.6","","-0.9","","63","","","","23","","6","","24.1","","101.07","","","","","","NA"
"-75.67","45.32","OTTAWA INTL A","6106001","2023-05-15 04:00","2023","05","15","04:00","4.9","","-1.1","","65","","","","23","","11","","24.1","","101.01","","","","","","Mostly Cloudy"
"-75.67","45.32","OTTAWA INTL A","6106001","2023-05-15 05:00","2023","05","15","05:00","4.4","","-0.5","","70","","","","24","","12","","24.1","","101.00","","","","","","NA"
"-75.67","45.32","OTTAWA INTL A","6106001","2023-05-15 06:00","2023","05","15","06:00","6.3","","0.8","","68","","","","24","","10","","24.1","","100.94","","","","","","NA"
"-75.67","45.32","OTTAWA INTL A","6106001","2023-05-15 07:00","2023","05","15","07:00","10.0","","0.9","","53","","","","25","","17","","24.1","","100.91","","","","","","Mostly Cloudy"
"-75.67","45.32","OTTAWA INTL A","6106001","2023-05-15 08:00","2023","05","15","08:00","13.7","","0.4","","40","","","","27","","18","","24.1","","100.88","","","","","","NA"
"-75.67","45.32","OTTAWA INTL A","6106001","2023-05-15 09:00","2023","05","15","09:00","15.6","","1.8","","39","","","","28","","12","","24.1","","100.74","","","","","","NA"
"-75.67","45.32","OTTAWA INTL A","6106001","2023-05-15 10:00","2023","05","15","10:00","18.5","","1.8","","33","","","","25","","28","","24.1","","100.58","","","","","","Mostly Cloudy"
"-75.67","45.32","OTTAWA INTL A","6106001","2023-05-15 11:00","2023","05","15","11:00","20.5","","0.2","","25","","","","24","","35","","24.1","","100.46","","","","","","NA"
"-75.67","45.32","OTTAWA INTL A","6106001","2023-05-15 12:00","2023","05","15","12:00","20.0","","-1.0","","24","","","","27","","25","","24.1","","100.28","","","","","","NA"
"-75.67","45.32","OTTAWA INTL A","6106001","2023-05-15 13:00","2023","05","15","13:00","21.3","","0.1","","24","","","","26","","25","","24.1","","100.12","","","","","","Cloudy"
"-75.67","45.32","OTTAWA INTL A","6106001","2023-05-15 14:00","2023","05","15","14:00","22.1","","-0.1","","23","","","","23","","40","","24.1","","99.97","","","","","","NA"
"-75.67","45.32","OTTAWA INTL A","6106001","2023-05-15 15:00","2023","05","15","15:00","22.3","","-0.2","","22","","","","25","","28","","24.1","","99.90","","","","","","NA"
"-75.67","45.32","OTTAWA INTL A","6106001","2023-05-15 16:00","2023","05","15","16:00","22.8","","1.1","","24","","","","26","","19","","24.1","","99.78","","","","","","Mostly Cloudy"
"-75.67","45.32","OTTAWA INTL A","6106001","2023-05-15 17:00","2023","05","15","17:00","23.4","","-0.9","","20","","","","25","","33","","24.1","","99.70","","","","","","NA"
"-75.67","45.32","OTTAWA INTL A","6106001","2023-05-15 18:00","2023","05","15","18:00","21.6","","-2.1","","20","","","","26","","25","","24.1","","99.67","","","","","","NA"
"-75.67","45.32","OTTAWA INTL A","6106001","2023-05-15 19:00","2023","05","15","19:00","19.8","","-2.8","","21","","","","26","","22","","24.1","","99.65","","","","","","Mostly Cloudy"
"-75.67","45.32","OTTAWA INTL A","6106001","2023-05-15 20:00","2023","05","15","20:00","18.5","","-2.9","","23","","","","25","","25","","24.1","","99.62","","","","","","NA"
"-75.67","45.32","OTTAWA INTL A","6106001","2023-05-15 21:00","2023","05","15","21:00","17.9","","-3.1","","24","","","","26","","23","","24.1","","99.65","","","","","","NA"
"-75.67","45.32","OTTAWA INTL A","6106001","2023-05-15 22:00","2023","05","15","22:00","16.8","","-1.8","","28","","","","26","","23","","24.1","","99.61","","","","","","Cloudy"
"-75.67","45.32","OTTAWA INTL A","6106001","2023-05-15 23:00","2023","05","15","23:00","15.6","","-0.5","","33","","","","25","","14","","24.1","","99.54","","","","","","NA"
"-75.67","45.32","OTTAWA INTL A","6106001","2023-05-16 00:00","2023","05","16","00:00","14.6","","0.7","","38","","","","24","","12","","24.1","","99.47","","","","","","NA"
"-75.67","45.32","OTTAWA INTL A","6106001","2023-05-16 01:00","2023","05","16","01:00","13.7","","1.3","","43","","","","24","","12","","24.1","","99.39","","","","","","Cloudy"
"-75.67","45.32","OTTAWA INTL A","6106001","2023-05-16 02:00","2023","05","16","02:00","13.2","","0.6","","42","","","","22","","10","","24.1","","99.31","","","","","","NA"
"-75.67","45.32","OTTAWA INTL A","6106001","2023-05-16 03:00","2023","05","16","03:00","12.4","","1.1","","46","","","","22","","12","","24.1","","99.24","","","","","","NA"
"-75.67","45.32","OTTAWA INTL A","6106001","2023-05-16 04:00","2023","05","16","04:00","12.3","","1.0","","46","","","","23","","13","","24.1","","99.16","","","","","","Cloudy"
"-75.67","45.32","OTTAWA INTL A","6106001","2023-05-16 05:00","2023","05","16","05:00","12.2","","1.4","","48","","","","22","","15","","24.1","","99.08","","","","","","NA"
"-75.67","45.32","OTTAWA INTL A","6106001","2023-05-16 06:00","2023","05","16","06:00","12.3","","2.7","","52","","","","23","","12","","24.1","","99.07","","","","","","NA"
"-75.67","45.32","OTTAWA INTL A","6106001","2023-05-16 07:00","2023","05","16","07:00","12.5","","3.3","","53","","","","22","","9","","24.1","","99.00","","","","","","Cloudy"
"-75.67","45.32","OTTAWA INTL A","6106001","2023-05-16 08:00","2023","05","16","08:00","13.6","","4.3","","53","","","","23","","11","","24.1","","98.90","","","","","","NA"
"-75.67","45.32","OTTAWA INTL A","6106001","2023-05-16 09:00","2023","05","16","09:00","15.5","","4.4","","47","","","","23","","12","","24.1","","98.80","","","","","","NA"
"-75.67","45.32","OTTAWA INTL A","6106001","2023-05-16 10:00","2023","05","16","10:00","16.6","","4.6","","45","","","","26","","16","","24.1","","98.72","","","","","","Mostly Cloudy"
"-75.67","45.32","OTTAWA INTL A","6106001","2023-05-16 11:00","2023","05","16","11:00","17.7","","5.1","","43","","","","25","","14","","24.1","","98.63","","","","","","NA"
"-75.67","45.32","OTTAWA INTL A","6106001","2023-05-16 12:00","2023","05","16","12:00","17.2","","3.8","","41","","","","32","","19","","24.1","","98.57","","","","","","NA"
"-75.67","45.32","OTTAWA INTL A","6106001","2023-05-16 13:00","2023","05","16","13:00","12.1","","7.5","","73","","","","36","","39","","24.1","","98.69","","","","","","Mostly Cloudy"
"-75.67","45.32","OTTAWA INTL A","6106001","2023-05-16 14:00","2023","05","16","14:00","7.3","","4.9","","85","","","","35","","33","","24.1","","98.87","","","","","","Rain"
"-75.67","45.32","OTTAWA INTL A","6106001","2023-05-16 15:00","2023","05","16","15:00","7.2","","4.7","","84","","","","1","","32","","24.1","","98.92","","","","","","NA"
"-75.67","45.32","OTTAWA INTL A","6106001","2023-05-16 16:00","2023","05","16","16:00","8.0","","3.3","","72","","","","36","","25","","24.1","","99.04","","","","","","Mostly Cloudy"
"-75.67","45.32","OTTAWA INTL A","6106001","2023-05-16 17:00","2023","05","16","17:00","7.4","","2.5","","71","","","","34","","24","","24.1","","99.13","","","","","","NA"
"-75.67","45.32","OTTAWA INTL A","6106001","2023-05-16 18:00","2023","05","16","18:00","7.0","","1.5","","68","","","","35","","22","","24.1","","99.19","","","","","","NA"
"-75.67","45.32","OTTAWA INTL A","6106001","2023-05-16 19:00","2023","05","16","19:00","6.3","","-0.1","","64","","","","36","","22","","24.1","","99.24","","","","","","Mostly Cloudy"
"-75.67","45.32","OTTAWA INTL A","6106001","2023-05-16 20:00","2023","05","16","20:00","5.8","","0.6","","69","","","","32","","22","","24.1","","99.31","","","","","","NA"
"-75.67","45.32","OTTAWA INTL A","6106001","2023-05-16 21:00","2023","05","16","21:00","4.5","","0.8","","76","","","","32","","23","","24.1","","99.38","","","","","","NA"
"-75.67","45.32","OTTAWA INTL A","6106001","2023-05-16 22:00","2023","05","16","22:00","3.7","","-1.8","","67","","","","32","","22","","24.1","","99.42","","","","","","Clear"
"-75.67","45.32","OTTAWA INTL A","6106001","2023-05-16 23:00","2023","05","16","23:00","2.6","","-2.1","","71","","","","31","","20","","24.1","","99.44","","","","","","NA"
"-75.67","45.32","OTTAWA INTL A","6106001","2023-05-17 00:00","2023","05","17","00:00","2.6","","-2.3","","70","","","","32","","20","","24.1","","99.51","","","","","","NA"
"-75.67","45.32","OTTAWA INTL A","6106001","2023-05-17 01:00","2023","05","17","01:00","2.4","","-3.0","","68","","","","32","","31","","24.1","","99.56","","","","","","Mainly Clear"
"-75.67","45.32","OTTAWA INTL A","6106001","2023-05-17 02:00","2023","05","17","02:00","1.6","","-5.9","","57","","","","34","","27","","24.1","","99.64","","","","","","NA"
"-75.67","45.32","OTTAWA INTL A","6106001","2023-05-17 03:00","2023","05","17","03:00","0.9","","-7.0","","56","","","","35","","22","","24.1","","99.72","","","","","","NA"
"-75.67","45.32","OTTAWA INTL A","6106001","2023-05-17 04:00","2023","05","17","04:00","0.8","","-7.7","","53","","","","35","","25","","24.1","","99.77","","","","","","Mainly Clear"
"-75.67","45.32","OTTAWA INTL A","6106001","2023-05-17 05:00","2023","05","17","05:00","0.6","","-8.6","","50","","","","33","","23","","24.1","","99.87","","","","","","NA"
"-75.67","45.32","OTTAWA INTL A","6106001","2023-05-17 06:00","2023","05","17","06:00","1.6","","-8.5","","47","","","","34","","23","","24.1","","99.96","","","","","","NA"
"-75.67","45.32","OTTAWA INTL A","6106001","2023-05-17 07:00","2023","05","17","07:00","1.8","","-7.6","","50","","","","35","","22","","24.1","","100.03","","","","","","Mostly Cloudy"
"-75.67","45.32","OTTAWA INTL A","6106001","2023-05-17 08:00","2023","05","17","08:00","2.1","","-7.0","","51","","","","33","","27","","24.1","","100.12","","","","","","NA"
"-75.67","45.32","OTTAWA INTL A","6106001","2023-05-17 09:00","2023","05","17","09:00","2.6","","-7.7","","46","","","","31","","27","","24.1","","100.16","","","","","","NA"
"-75.67","45.32","OTTAWA INTL A","6106001","2023-05-17 10:00","2023","05","17","10:00","4.9","","-8.4","","38","","","","34","","25","","24.1","","100.22","","","","","","Mainly Clear"
"-75.67","45.32","OTTAWA INTL A","6106001","2023-05-17 11:00","2023","05","17","11:00","5.6","","-8.6","","35","","","","33","","27","","24.1","","100.26","","","","","","NA"
"-75.67","45.32","OTTAWA INTL A","6106001","2023-05-17 12:00","2023","05","17","12:00","7.4","","-8.7","","31","","","","34","","22","","24.1","","100.25","","","","","","NA"
"-75.67","45.32","OTTAWA INTL A","6106001","2023-05-17 13:00","2023","05","17","13:00","8.5","","-8.9","","28","","","","34","","26","","24.1","","100.24","","","","","","Mainly Clear"
"-75.67","45.32","OTTAWA INTL A","6106001","2023-05-17 14:00","2023","05","17","14:00","8.7","","-8.8","","28","","","","34","","23","","24.1","","100.24","","","","","","NA"
"-75.67","45.32","OTTAWA INTL A","6106001","2023-05-17 15:00","2023","05","17","15:00","9.2","","-8.7","","27","","","","35","","24","","24.1","","100.23","","","","","","NA"
"-75.67","45.32","OTTAWA INTL A","6106001","2023-05-17 16:00","2023","05","17","16:00","9.8","","-9.1","","26","","","","35","","25","","24.1","","100.24","","","","","","Clear"
"-75.67","45.32","OTTAWA INTL A","6106001","2023-05-17 17:00","2023","05","17","17:00","9.6","","-8.9","","26","","","","34","","26","","24.1","","100.27","","","","","","NA"
"-75.67","45.32","OTTAWA INTL A","6106001","2023-05-17 18:00","2023","05","17","18:00","8.6","","-9.0","","28","","","","34","","12","","24.1","","100.29","","","","","","NA"
"-75.67","45.32","OTTAWA INTL A","6106001","2023-05-17 19:00","2023","05","17","19:00","7.6","","-8.5","","31","","","","34","","14","","24.1","","100.35","","","","","","Mainly Clear"
"-75.67","45.32","OTTAWA INTL A","6106001","2023-05-17 20:00","2023","05","17","20:00","4.6","","-7.6","","41","","","","25","","8","","24.1","","100.44","","","","","","NA"
"-75.67","45.32","OTTAWA INTL A","6106001","2023-05-17 21:00","2023","05","17","21:00","4.7","","-6.4","","44","","","","25","","10","","24.1","","100.55","","","","","","NA"
"-75.67","45.32","OTTAWA INTL A","6106001","2023-05-17 22:00","2023","05","17","22:00","3.0","","-6.3","","51","","","","27","","7","","24.1","","100.59","","","","","","Mainly Clear"
"-75.67","45.32","OTTAWA INTL A","6106001","2023-05-17 23:00","2023","05","17","23:00","2.5","","-4.4","","60","","","","28","","7","","24.1","","100.62","","","","","","NA"
"-75.67","45.32","OTTAWA INTL A","6106001","2023-05-18 00:00","2023","05","18","00:00","1.0","","-3.9","","70","","","","26","","9","","24.1","","100.68","","","","","","NA"
"-75.67","45.32","OTTAWA INTL A","6106001","2023-05-18 01:00","2023","05","18","01:00","0.8","","-4.4","","68","","","","30","","7","","24.1","","100.70","","","","","","Mainly Clear"
"-75.67","45.32","OTTAWA INTL A","6106001","2023-05-18 02:00","2023","05","18","02:00","0.6","","-3.5","","74","","","","28","","4","","24.1","","100.75","","","","","","NA"
"-75.67","45.32","OTTAWA INTL A","6106001","2023-05-18 03:00","2023","05","18","03:00","-3.0","","-5.5","","84","","","","23","","7","","24.1","","100.81","","","","-6","","NA"
"-75.67","45.32","OTTAWA INTL A","6106001","2023-05-18 04:00","2023","05","18","04:00","-1.3","","-5.3","","74","","","","27","","8","","24.1","","100.85","","","","-4","","Mainly Clear"
"-75.67","45.32","OTTAWA INTL A","6106001","2023-05-18 05:00","2023","05","18","05:00","-0.1","","-4.3","","74","","","","29","","4","","24.1","","100.94","","","","-1","","NA"
"-75.67","45.32","OTTAWA INTL A","6106001","2023-05-18 06:00","2023","05","18","06:00","1.1","","-2.0","","80","","","","23","","4","","24.1","","101.01","","","","","","NA"
"-75.67","45.32","OTTAWA INTL A","6106001","2023-05-18 07:00","2023","05","18","07:00","5.2","","-2.9","","56","","","","32","","6","","24.1","","101.10","","","","","","Mostly Cloudy"
"-75.67","45.32","OTTAWA INTL A","6106001","2023-05-18 08:00","2023","05","18","08:00","6.8","","-4.8","","44","","","","31","","5","","24.1","","101.13","","","","","","NA"
"-75.67","45.32","OTTAWA INTL A","6106001","2023-05-18 09:00","2023","05","18","09:00","9.3","","-5.0","","36","","","","29","","10","","24.1","","101.17","","","","","","NA"
"-75.67","45.32","OTTAWA INTL A","6106001","2023-05-18 10:00","2023","05","18","10:00","9.6","","-5.4","","34","","","","29","","15","","24.1","","101.14","","","","","","Mainly Clear"
"-75.67","45.32","OTTAWA INTL A","6106001","2023-05-18 11:00","2023","05","18","11:00","11.9","","-4.3","","32","","","","27","","17","","24.1","","101.13","","","","","","NA"
"-75.67","45.32","OTTAWA INTL A","6106001","2023-05-18 12:00","2023","05","18","12:00","12.6","","-4.4","","30","","","","34","","5","","24.1","","101.07","","","","","","NA"
"-75.67","45.32","OTTAWA INTL A","6106001","2023-05-18 13:00","2023","05","18","13:00","13.9","","-4.5","","28","","","","25","","16","","24.1","","100.98","","","","","","Clear"
"-75.67","45.32","OTTAWA INTL A","6106001","2023-05-18 14:00","2023","05","18","14:00","14.8","","-4.4","","26","","","","24","","13","","24.1","","100.95","","","","","","NA"
"-75.67","45.32","OTTAWA INTL A","6106001","2023-05-18 15:00","2023","05","18","15:00","15.6","","-4.4","","25","","","","27","","13","","24.1","","100.90","","","","","","NA"
"-75.67","45.32","OTTAWA INTL A","6106001","2023-05-18 16:00","2023","05","18","16:00","15.6","","-4.0","","26","","","","26","","11","","24.1","","100.85","","","","","","Mainly Clear"
"-75.67","45.32","OTTAWA INTL A","6106001","2023-05-18 17:00","2023","05","18","17:00","15.7","","-0.5","","33","","","","20","","15","","24.1","","100.80","","","","","","NA"
"-75.67","45.32","OTTAWA INTL A","6106001","2023-05-18 18:00","2023","05","18","18:00","14.8","","-0.1","","36","","","","19","","17","","24.1","","100.79","","","","","","NA"
"-75.67","45.32","OTTAWA INTL A","6106001","2023-05-18 19:00","2023","05","18","19:00","12.9","","1.0","","44","","","","20","","14","","24.1","","100.79","","","","","","Mostly Cloudy"
"-75.67","45.32","OTTAWA INTL A","6106001","2023-05-18 20:00","2023","05","18","20:00","11.0","","0.3","","48","","","","19","","10","","24.1","","100.80","","","","","","NA"
"-75.67","45.32","OTTAWA INTL A","6106001","2023-05-18 21:00","2023","05","18","21:00","9.0","","-0.2","","52","","","","17","","7","","24.1","","100.82","","","","","","NA"
"-75.67","45.32","OTTAWA INTL A","6106001","2023-05-18 22:00","2023","05","18","22:00","8.1","","-1.0","","52","","","","17","","10","","24.1","","100.81","","","","","","Mostly Cloudy"
"-75.67","45.32","OTTAWA INTL A","6106001","2023-05-18 23:00","2023","05","18","23:00","6.5","","-2.0","","54","","","","16","","11","","24.1","","100.76","","","","","","NA"
"-75.67","45.32","OTTAWA INTL A","6106001","2023-05-19 00:00","2023","05","19","00:00","6.0","","-3.0","","52","","","","16","","11","","24.1","","100.72","","","","","","NA"
"-75.67","45.32","OTTAWA INTL A","6106001","2023-05-19 01:00","2023","05","19","01:00","5.6","","-3.3","","53","","","","16","","10","","24.1","","100.67","","","","","","Mostly Cloudy"
"-75.67","45.32","OTTAWA INTL A","6106001","2023-05-19 02:00","2023","05","19","02:00","5.7","","-2.2","","57","","","","9","","6","","24.1","","100.61","","","","","","NA"
"-75.67","45.32","OTTAWA INTL A","6106001","2023-05-19 03:00","2023","05","19","03:00","5.0","","-1.4","","64","","","","9","","8","","24.1","","100.56","","","","","","NA"
"-75.67","45.32","OTTAWA INTL A","6106001","2023-05-19 04:00","2023","05","19","04:00","3.3","","-1.3","","72","","","","5","","10","","24.1","","100.55","","","","","","Mostly Cloudy"
"-75.67","45.32","OTTAWA INTL A","6106001","2023-05-19 05:00","2023","05","19","05:00","2.8","","-1.4","","74","","","","8","","6","","24.1","","100.56","","","","","","NA"
"-75.67","45.32","OTTAWA INTL A","6106001","2023-05-19 06:00","2023","05","19","06:00","5.6","","1.3","","74","","","","6","","7","","24.1","","100.58","","","","","","NA"
"-75.67","45.32","OTTAWA INTL A","6106001","2023-05-19 07:00","2023","05","19","07:00","10.2","","4.3","","66","","","","18","","7","","24.1","","100.56","","","","","","Mostly Cloudy"
"-75.67","45.32","OTTAWA INTL A","6106001","2023-05-19 08:00","2023","05","19","08:00","14.8","","6.1","","56","","","","20","","22","","24.1","","100.54","","","","","","NA"
"-75.67","45.32","OTTAWA INTL A","6106001","2023-05-19 09:00","2023","05","19","09:00","17.2","","7.5","","53","","","","19","","21","","24.1","","100.53","","","","","","NA"
"-75.67","45.32","OTTAWA INTL A","6106001","2023-05-19 10:00","2023","05","19","10:00","18.5","","8.2","","51","","","","19","","23","","24.1","","100.50","","","","","","Mostly Cloudy"
"-75.67","45.32","OTTAWA INTL A","6106001","2023-05-19 11:00","2023","05","19","11:00","20.1","","9.6","","50","","","","19","","20","","24.1","","100.41","","","","","","NA"
"-75.67","45.32","OTTAWA INTL A","6106001","2023-05-19 12:00","2023","05","19","12:00","20.9","","9.6","","48","","","","18","","32","","24.1","","100.33","","","","","","NA"
"-75.67","45.32","OTTAWA INTL A","6106001","2023-05-19 13:00","2023","05","19","13:00","21.2","","9.9","","48","","","","18","","30","","24.1","","100.28","","","","","","Mostly Cloudy"
"-75.67","45.32","OTTAWA INTL A","6106001","2023-05-19 14:00","2023","05","19","14:00","21.3","","10.2","","49","","","","19","","22","","24.1","","100.26","","","","","","NA"
"-75.67","45.32","OTTAWA INTL A","6106001","2023-05-19 15:00","2023","05","19","15:00","21.2","","10.9","","51","","","","20","","21","","24.1","","100.22","","","","","","NA"
"-75.67","45.32","OTTAWA INTL A","6106001","2023-05-19 16:00","2023","05","19","16:00","21.4","","10.8","","50","","","","21","","20","","24.1","","100.19","","","","","","Cloudy"
"-75.67","45.32","OTTAWA INTL A","6106001","2023-05-19 17:00","2023","05","19","17:00","21.2","","10.7","","51","","","","20","","18","","24.1","","100.18","","","","","","NA"
"-75.67","45.32","OTTAWA INTL A","6106001","2023-05-19 18:00","2023","05","19","18:00","21.0","","10.8","","52","","","","22","","15","","24.1","","100.15","","","","","","NA"
"-75.67","45.32","OTTAWA INTL A","6106001","2023-05-19 19:00","2023","05","19","19:00","20.7","","11.2","","54","","","","22","","23","","24.1","","100.19","","","","","","Mostly Cloudy"
"-75.67","45.32","OTTAWA INTL A","6106001","2023-05-19 20:00","2023","05","19","20:00","18.9","","11.8","","63","","","","20","","15","","24.1","","100.24","","","","","","NA"
"-75.67","45.32","OTTAWA INTL A","6106001","2023-05-19 21:00","2023","05","19","21:00","18.4","","12.0","","66","","","","19","","13","","24.1","","100.27","","","","","","NA"
"-75.67","45.32","OTTAWA INTL A","6106001","2023-05-19 22:00","2023","05","19","22:00","17.2","","12.4","","73","","","","18","","6","","24.1","","100.27","","","","","","Mostly Cloudy"
"-75.67","45.32","OTTAWA INTL A","6106001","2023-05-19 23:00","2023","05","19","23:00","16.3","","12.7","","79","","","","17","","9","","24.1","","100.29","","","","","","NA"
"-75.67","45.32","OTTAWA INTL A","6106001","2023-05-20 00:00","2023","05","20","00:00","16.0","","12.8","","81","","","","16","","9","","24.1","","100.26","","","","","","NA"
"-75.67","45.32","OTTAWA INTL A","6106001","2023-05-20 01:00","2023","05","20","01:00","15.7","","12.8","","83","","","","16","","8","","24.1","","100.25","","","","","","Mostly Cloudy"
"-75.67","45.32","OTTAWA INTL A","6106001","2023-05-20 02:00","2023","05","20","02:00","15.0","","12.5","","85","","","","16","","8","","24.1","","100.20","","","","","","NA"
"-75.67","45.32","OTTAWA INTL A","6106001","2023-05-20 03:00","2023","05","20","03:00","14.5","","12.3","","86","","","","14","","9","","24.1","","100.18","","","","","","NA"
"-75.67","45.32","OTTAWA INTL A","6106001","2023-05-20 04:00","2023","05","20","04:00","14.7","","11.9","","83","","","","17","","8","","24.1","","100.17","","","","","","Mostly Cloudy"
"-75.67","45.32","OTTAWA INTL A","6106001","2023-05-20 05:00","2023","05","20","05:00","14.5","","11.5","","82","","","","18","","7","","24.1","","100.17","","","","","","NA"
"-75.67","45.32","OTTAWA INTL A","6106001","2023-05-20 06:00","2023","05","20","06:00","15.1","","11.8","","80","","","","15","","7","","19.3","","100.17","","","","","","NA"
"-75.67","45.32","OTTAWA INTL A","6106001","2023-05-20 07:00","2023","05","20","07:00","15.8","","11.6","","76","","","","15","","6","","19.3","","100.19","","","","","","Cloudy"
"-75.67","45.32","OTTAWA INTL A","6106001","2023-05-20 08:00","2023","05","20","08:00","15.1","","11.5","","79","","","","16","","4","","19.3","","100.17","","","","","","NA"
"-75.67","45.32","OTTAWA INTL A","6106001","2023-05-20 09:00","2023","05","20","09:00","16.0","","11.6","","75","","","","16","","13","","19.3","","100.15","","","","","","NA"
"-75.67","45.32","OTTAWA INTL A","6106001","2023-05-20 10:00","2023","05","20","10:00","14.5","","12.4","","87","","","","15","","10","","19.3","","100.14","","","","","","Cloudy"
"-75.67","45.32","OTTAWA INTL A","6106001","2023-05-20 11:00","2023","05","20","11:00","14.4","","13.0","","91","","","","12","","13","","8.1","","100.10","","","","","","Rain,Fog"
"-75.67","45.32","OTTAWA INTL A","6106001","2023-05-20 12:00","2023","05","20","12:00","14.5","","13.6","","94","","","","15","","10","","8.1","","100.00","","","","","","Rain,Fog"
"-75.67","45.32","OTTAWA INTL A","6106001","2023-05-20 13:00","2023","05","20","13:00","14.4","","13.5","","94","","","","15","","10","","9.7","","99.94","","","","","","Rain,Fog"
"-75.67","45.32","OTTAWA INTL A","6106001","2023-05-20 14:00","2023","05","20","14:00","14.6","","13.9","","96","","","","16","","12","","8.1","","99.90","","","","","","Rain,Fog"
"-75.67","45.32","OTTAWA INTL A","6106001","2023-05-20 15:00","2023","05","20","15:00","14.5","","14.1","","97","","","","16","","14","","6.4","","99.85","","","","","","Rain,Fog"
"-75.67","45.32","OTTAWA INTL A","6106001","2023-05-20 16:00","2023","05","20","16:00","14.8","","14.3","","97","","","","19","","8","","6.4","","99.82","","","","","","Rain,Fog"
"-75.67","45.32","OTTAWA INTL A","6106001","2023-05-20 17:00","2023","05","20","17:00","14.8","","14.3","","97","","","","20","","8","","9.7","","99.74","","","","","","Rain,Fog"
"-75.67","45.32","OTTAWA INTL A","6106001","2023-05-20 18:00","2023","05","20","18:00","14.6","","14.1","","97","","","","22","","4","","12.9","","99.67","","","","","","Rain"
"-75.67","45.32","OTTAWA INTL A","6106001","2023-05-20 19:00","2023","05","20","19:00","14.2","","14.0","","98","","","","18","","5","","12.9","","99.66","","","","","","Rain"
"-75.67","45.32","OTTAWA INTL A","6106001","2023-05-20 20:00","2023","05","20","20:00","14.1","","13.9","","99","","","","19","","9","","12.9","","99.64","","","","","","Drizzle"
"-75.67","45.32","OTTAWA INTL A","6106001","2023-05-20 21:00","2023","05","20","21:00","13.7","","13.5","","99","","","","17","","8","","12.9","","99.57","","","","","","NA"
"-75.67","45.32","OTTAWA INTL A","6106001","2023-05-20 22:00","2023","05","20","22:00","13.6","","13.2","","98","","","","19","","15","","3.2","","99.53","","","","","","Moderate Rain Showers,Fog"
"-75.67","45.32","OTTAWA INTL A","6106001","2023-05-20 23:00","2023","05","20","23:00","13.4","","12.9","","97","","","","20","","16","","12.9","","99.47","","","","","","Rain"
"-75.67","45.32","OTTAWA INTL A","6106001","2023-05-21 00:00","2023","05","21","00:00","13.2","","12.7","","97","","","","22","","13","","12.9","","99.44","","","","","","NA"
"-75.67","45.32","OTTAWA INTL A","6106001","2023-05-21 01:00","2023","05","21","01:00","12.4","","11.4","","94","","","","24","","16","","12.9","","99.45","","","","","","Cloudy"
"-75.67","45.32","OTTAWA INTL A","6106001","2023-05-21 02:00","2023","05","21","02:00","11.0","","9.8","","92","","","","23","","23","","12.9","","99.45","","","","","","NA"
"-75.67","45.32","OTTAWA INTL A","6106001","2023-05-21 03:00","2023","05","21","03:00","10.4","","9.3","","93","","","","23","","14","","16.1","","99.45","","","","","","NA"
"-75.67","45.32","OTTAWA INTL A","6106001","2023-05-21 04:00","2023","05","21","04:00","10.5","","9.4","","93","","","","21","","13","","16.1","","99.47","","","","","","Cloudy"
"-75.67","45.32","OTTAWA INTL A","6106001","2023-05-21 05:00","2023","05","21","05:00","10.4","","9.7","","95","","","","26","","14","","12.9","","99.52","","","","","","NA"
"-75.67","45.32","OTTAWA INTL A","6106001","2023-05-21 06:00","2023","05","21","06:00","10.9","","10.3","","96","","","","25","","16","","16.1","","99.60","","","","","","NA"
"-75.67","45.32","OTTAWA INTL A","6106001","2023-05-21 07:00","2023","05","21","07:00","12.6","","11.1","","91","","","","28","","17","","24.1","","99.69","","","","","","Mostly Cloudy"
"-75.67","45.32","OTTAWA INTL A","6106001","2023-05-21 08:00","2023","05","21","08:00","14.8","","11.8","","82","","","","30","","18","","24.1","","99.77","","","","","","NA"
"-75.67","45.32","OTTAWA INTL A","6106001","2023-05-21 09:00","2023","05","21","09:00","16.0","","12.7","","81","","","","30","","22","","24.1","","99.86","","","","","","NA"
"-75.67","45.32","OTTAWA INTL A","6106001","2023-05-21 10:00","2023","05","21","10:00","17.4","","12.2","","72","","","","28","","16","","24.1","","99.91","","","","","","Mainly Clear"
"-75.67","45.32","OTTAWA INTL A","6106001","2023-05-21 11:00","2023","05","21","11:00","18.9","","11.5","","61","","","","29","","19","","24.1","","99.97","","","","","","NA"
"-75.67","45.32","OTTAWA INTL A","6106001","2023-05-21 12:00","2023","05","21","12:00","20.1","","10.1","","52","","","","29","","18","","24.1","","99.99","","","","","","NA"
"-75.67","45.32","OTTAWA INTL A","6106001","2023-05-21 13:00","2023","05","21","13:00","21.0","","10.8","","52","","","","27","","22","","24.1","","99.99","","","","","","Mostly Cloudy"
"-75.67","45.32","OTTAWA INTL A","6106001","2023-05-21 14:00","2023","05","21","14:00","21.8","","11.4","","51","","","","26","","23","","24.1","","100.00","","","","","","NA"
"-75.67","45.32","OTTAWA INTL A","6106001","2023-05-21 15:00","2023","05","21","15:00","19.0","","11.0","","60","","","","35","","19","","24.1","","100.08","","","","","","NA"
"-75.67","45.32","OTTAWA INTL A","6106001","2023-05-21 16:00","2023","05","21","16:00","21.3","","12.2","","56","","","","35","","20","","24.1","","100.11","","","","","","Mainly Clear"
"-75.67","45.32","OTTAWA INTL A","6106001","2023-05-21 17:00","2023","05","21","17:00","20.4","","9.4","","49","","","","35","","25","","24.1","","100.18","","","","","","NA"
"-75.67","45.32","OTTAWA INTL A","6106001","2023-05-21 18:00","2023","05","21","18:00","19.0","","4.4","","38","","","","35","","24","","24.1","","100.26","","","","","","NA"
"-75.67","45.32","OTTAWA INTL A","6106001","2023-05-21 19:00","2023","05","21","19:00","17.1","","0.8","","33","","","","36","","30","","24.1","","100.35","","","","","","Mainly Clear"
"-75.67","45.32","OTTAWA INTL A","6106001","2023-05-21 20:00","2023","05","21","20:00","14.7","","-0.6","","35","","","","36","","16","","24.1","","100.47","","","","","","NA"
"-75.67","45.32","OTTAWA INTL A","6106001","2023-05-21 21:00","2023","05","21","21:00","12.7","","-0.6","","40","","","","36","","13","","24.1","","100.61","","","","","","NA"
"-75.67","45.32","OTTAWA INTL A","6106001","2023-05-21 22:00","2023","05","21","22:00","11.8","","-2.7","","36","","","","1","","23","","24.1","","100.67","","","","","","Clear"
"-75.67","45.32","OTTAWA INTL A","6106001","2023-05-21 23:00","2023","05","21","23:00","10.2","","-2.3","","41","","","","36","","16","","24.1","","100.75","","","","","","NA"
"-75.67","45.32","OTTAWA INTL A","6106001","2023-05-22 00:00","2023","05","22","00:00","8.8","","-2.3","","46","","","","1","","17","","24.1","","100.81","","","","","","NA"
"-75.67","45.32","OTTAWA INTL A","6106001","2023-05-22 01:00","2023","05","22","01:00","7.9","","-2.3","","48","","","","1","","18","","24.1","","100.87","","","","","","Clear"
"-75.67","45.32","OTTAWA INTL A","6106001","2023-05-22 02:00","2023","05","22","02:00","6.4","","-2.3","","54","","","","3","","15","","24.1","","100.93","","","","","","NA"
"-75.67","45.32","OTTAWA INTL A","6106001","2023-05-22 03:00","2023","05","22","03:00","5.9","","-1.9","","57","","","","1","","18","","24.1","","101.00","","","","","","NA"
"-75.67","45.32","OTTAWA INTL A","6106001","2023-05-22 04:00","2023","05","22","04:00","5.4","","-2.7","","56","","","","2","","20","","24.1","","101.04","","","","","","Clear"
"-75.67","45.32","OTTAWA INTL A","6106001","2023-05-22 05:00","2023","05","22","05:00","4.7","","-1.8","","62","","","","3","","15","","24.1","","101.13","","","","","","NA"
"-75.67","45.32","OTTAWA INTL A","6106001","2023-05-22 06:00","2023","05","22","06:00","5.9","","-0.9","","61","","","","3","","16","","24.1","","101.21","","","","","","NA"
"-75.67","45.32","OTTAWA INTL A","6106001","2023-05-22 07:00","2023","05","22","07:00","7.2","","-1.4","","54","","","","7","","21","","24.1","","101.29","","","","","","Clear"
"-75.67","45.32","OTTAWA INTL A","6106001","2023-05-22 08:00","2023","05","22","08:00","8.8","","-0.6","","52","","","","6","","19","","24.1","","101.32","","","","","","NA"
"-75.67","45.32","OTTAWA INTL A","6106001","2023-05-22 09:00","2023","05","22","09:00","10.2","","-0.4","","48","","","","5","","16","","24.1","","101.33","","","","","","NA"
"-75.67","45.32","OTTAWA INTL A","6106001","2023-05-22 10:00","2023","05","22","10:00","11.7","","-0.5","","43","","","","4","","8","","24.1","","101.32","","","","","","Clear"
"-75.67","45.32","OTTAWA INTL A","6106001","2023-05-22 11:00","2023","05","22","11:00","12.2","","-0.1","","43","","","","6","","14","","24.1","","101.31","","","","","","NA"
"-75.67","45.32","OTTAWA INTL A","6106001","2023-05-22 12:00","2023","05","22","12:00","13.3","","-0.5","","39","","","","35","","6","","24.1","","101.26","","","","","","NA"
"-75.67","45.32","OTTAWA INTL A","6106001","2023-05-22 13:00","2023","05","22","13:00","14.8","","-0.6","","35","","","","11","","9","","24.1","","101.22","","","","","","Clear"
"-75.67","45.32","OTTAWA INTL A","6106001","2023-05-22 14:00","2023","05","22","14:00","15.8","","0.2","","34","","","","3","","11","","24.1","","101.18","","","","","","NA"
"-75.67","45.32","OTTAWA INTL A","6106001","2023-05-22 15:00","2023","05","22","15:00","15.9","","-0.2","","33","","","","36","","2","","24.1","","101.13","","","","","","NA"
"-75.67","45.32","OTTAWA INTL A","6106001","2023-05-22 16:00","2023","05","22","16:00","16.3","","-1.2","","30","","","","8","","7","","24.1","","101.10","","","","","","Clear"
"-75.67","45.32","OTTAWA INTL A","6106001","2023-05-22 17:00","2023","05","22","17:00","16.5","","-3.0","","26","","","","27","","3","","24.1","","101.08","","","","","","NA"
"-75.67","45.32","OTTAWA INTL A","6106001","2023-05-22 18:00","2023","05","22","18:00","16.2","","-0.3","","32","","","","18","","7","","24.1","","101.11","","","","","","NA"
"-75.67","45.32","OTTAWA INTL A","6106001","2023-05-22 19:00","2023","05","22","19:00","13.6","","1.4","","43","","","","16","","8","","24.1","","101.12","","","","","","Mainly Clear"
"-75.67","45.32","OTTAWA INTL A","6106001","2023-05-22 20:00","2023","05","22","20:00","12.0","","0.4","","45","","","","16","","8","","24.1","","101.14","","","","","","NA"
"-75.67","45.32","OTTAWA INTL A","6106001","2023-05-22 21:00","2023","05","22","21:00","11.5","","0.6","","47","","","","17","","9","","24.1","","101.21","","","","","","NA"
"-75.67","45.32","OTTAWA INTL A","6106001","2023-05-22 22:00","2023","05","22","22:00","8.8","","0.5","","56","","","","15","","9","","24.1","","101.19","","","","","","Clear"
"-75.67","45.32","OTTAWA INTL A","6106001","2023-05-22 23:00","2023","05","22","23:00","9.3","","-0.2","","51","","","","14","","9","","24.1","","101.17","","","","","","NA"
"-75.67","45.32","OTTAWA INTL A","6106001","2023-05-23 00:00","2023","05","23","00:00","6.6","","0.3","","64","","","","17","","3","","24.1","","101.16","","","","","","NA"
"-75.67","45.32","OTTAWA INTL A","6106001","2023-05-23 01:00","2023","05","23","01:00","5.9","","1.0","","70","","","","3","","4","","24.1","","101.16","","","","","","Clear"
"-75.67","45.32","OTTAWA INTL A","6106001","2023-05-23 02:00","2023","05","23","02:00","5.6","","1.2","","73","","","","5","","4","","24.1","","101.17","","","","","","NA"
"-75.67","45.32","OTTAWA INTL A","6106001","2023-05-23 03:00","2023","05","23","03:00","3.8","","2.0","","88","","","","4","","7","","24.1","","101.17","","","","","","NA"
"-75.67","45.32","OTTAWA INTL A","6106001","2023-05-23 04:00","2023","05","23","04:00","3.9","","2.0","","87","","","","6","","5","","24.1","","101.20","","","","","","Mainly Clear"
"-75.67","45.32","OTTAWA INTL A","6106001","2023-05-23 05:00","2023","05","23","05:00","4.1","","2.7","","91","","","","5","","8","","24.1","","101.22","","","","","","NA"
"-75.67","45.32","OTTAWA INTL A","6106001","2023-05-23 06:00","2023","05","23","06:00","7.2","","5.0","","86","","","","7","","6","","24.1","","101.23","","","","","","NA"
"-75.67","45.32","OTTAWA INTL A","6106001","2023-05-23 07:00","2023","05","23","07:00","10.2","","3.6","","63","","","","8","","7","","24.1","","101.26","","","","","","Mainly Clear"
"-75.67","45.32","OTTAWA INTL A","6106001","2023-05-23 08:00","2023","05","23","08:00","12.9","","2.2","","48","","","","7","","6","","24.1","","101.24","","","","","","NA"
"-75.67","45.32","OTTAWA INTL A","6106001","2023-05-23 09:00","2023","05","23","09:00","14.7","","1.4","","40","","","","13","","10","","24.1","","101.21","","","","","","NA"
"-75.67","45.32","OTTAWA INTL A","6106001","2023-05-23 10:00","2023","05","23","10:00","17.0","","-0.2","","31","","","","12","","10","","24.1","","101.17","","","","","","Mainly Clear"
"-75.67","45.32","OTTAWA INTL A","6106001","2023-05-23 11:00","2023","05","23","11:00","18.2","","-0.2","","28","","","","20","","4","","24.1","","101.12","","","","","","NA"
"-75.67","45.32","OTTAWA INTL A","6106001","2023-05-23 12:00","2023","05","23","12:00","19.9","","0.2","","27","","","","19","","8","","24.1","","101.05","","","","","","NA"
"-75.67","45.32","OTTAWA INTL A","6106001","2023-05-23 13:00","2023","05","23","13:00","20.6","","1.3","","27","","","","18","","6","","24.1","","100.95","","","","","","Mostly Cloudy"
"-75.67","45.32","OTTAWA INTL A","6106001","2023-05-23 14:00","2023","05","23","14:00","21.9","","2.1","","27","","","","19","","5","","24.1","","100.84","","","","","","NA"
"-75.67","45.32","OTTAWA INTL A","6106001","2023-05-23 15:00","2023","05","23","15:00","23.0","","3.5","","28","","","","19","","14","","24.1","","100.74","","","","","","NA"
"-75.67","45.32","OTTAWA INTL A","6106001","2023-05-23 16:00","2023","05","23","16:00","23.5","","4.3","","28","","","","19","","17","","24.1","","100.63","","","","","","Mostly Cloudy"
"-75.67","45.32","OTTAWA INTL A","6106001","2023-05-23 17:00","2023","05","23","17:00","22.9","","4.5","","30","","","","19","","16","","24.1","","100.58","","","","","","NA"
"-75.67","45.32","OTTAWA INTL A","6106001","2023-05-23 18:00","2023","05","23","18:00","21.8","","4.8","","33","","","","20","","18","","24.1","","100.51","","","","","","NA"
"-75.67","45.32","OTTAWA INTL A","6106001","2023-05-23 19:00","2023","05","23","19:00","19.5","","5.4","","39","","","","21","","10","","24.1","","100.49","","","","","","Mostly Cloudy"
"-75.67","45.32","OTTAWA INTL A","6106001","2023-05-23 20:00","2023","05","23","20:00","16.5","","5.9","","49","","","","17","","7","","24.1","","100.43","","","","","","NA"
"-75.67","45.32","OTTAWA INTL A","6106001","2023-05-23 21:00","2023","05","23","21:00","15.9","","5.5","","50","","","","19","","9","","24.1","","100.43","","","","","","NA"
"-75.67","45.32","OTTAWA INTL A","6106001","2023-05-23 22:00","2023","05","23","22:00","15.7","","4.6","","47","","","","20","","14","","24.1","","100.39","","","","","","Mostly Cloudy"
"-75.67","45.32","OTTAWA INTL A","6106001","2023-05-23 23:00","2023","05","23","23:00","14.9","","3.9","","47","","","","20","","9","","24.1","","100.33","","","","","","NA"
"-75.67","45.32","OTTAWA INTL A","6106001","2023-05-24 00:00","2023","05","24","00:00","15.6","","4.0","","46","","","","23","","16","","24.1","","100.29","","","","","","NA"
"-75.67","45.32","OTTAWA INTL A","6106001","2023-05-24 01:00","2023","05","24","01:00","13.7","","5.5","","57","","","","28","","9","","24.1","","100.26","","","","","","Cloudy"
"-75.67","45.32","OTTAWA INTL A","6106001","2023-05-24 02:00","2023","05","24","02:00","13.6","","6.9","","64","","","","30","","13","","24.1","","100.25","","","","","","NA"
"-75.67","45.32","OTTAWA INTL A","6106001","2023-05-24 03:00","2023","05","24","03:00","15.3","","8.2","","62","","","","34","","15","","24.1","","100.28","","","","","","NA"
"-75.67","45.32","OTTAWA INTL A","6106001","2023-05-24 04:00","2023","05","24","04:00","14.1","","8.5","","69","","","","31","","8","","24.1","","100.25","","","","","","Cloudy"
"-75.67","45.32","OTTAWA INTL A","6106001","2023-05-24 05:00","2023","05","24","05:00","14.3","","8.7","","69","","","","32","","11","","24.1","","100.30","","","","","","NA"
"-75.67","45.32","OTTAWA INTL A","6106001","2023-05-24 06:00","2023","05","24","06:00","13.1","","10.4","","84","","","","32","","11","","16.1","","100.35","","","","","","Rain"
"-75.67","45.32","OTTAWA INTL A","6106001","2023-05-24 07:00","2023","05","24","07:00","11.9","","10.8","","93","","","","31","","15","","4.8","","100.44","","","","","","Rain"
"-75.67","45.32","OTTAWA INTL A","6106001","2023-05-24 08:00","2023","05","24","08:00","10.7","","9.7","","93","","","","36","","16","","4.8","","100.50","","","","","","Rain,Fog"
"-75.67","45.32","OTTAWA INTL A","6106001","2023-05-24 09:00","2023","05","24","09:00","9.0","","8.1","","94","","","","33","","28","","24.1","","100.57","","","","","","Rain"
"-75.67","45.32","OTTAWA INTL A","6106001","2023-05-24 10:00","2023","05","24","10:00","7.7","","6.4","","92","","","","35","","24","","24.1","","100.63","","","","","","Rain"
"-75.67","45.32","OTTAWA INTL A","6106001","2023-05-24 11:00","2023","05","24","11:00","7.8","","5.2","","84","","","","34","","29","","24.1","","100.73","","","","","","NA"
"-75.67","45.32","OTTAWA INTL A","6106001","2023-05-24 12:00","2023","05","24","12:00","10.4","","3.8","","63","","","","36","","30","","24.1","","100.72","","","","","","NA"
"-75.67","45.32","OTTAWA INTL A","6106001","2023-05-24 13:00","2023","05","24","13:00","11.6","","1.6","","50","","","","34","","34","","24.1","","100.72","","","","","","Clear"
"-75.67","45.32","OTTAWA INTL A","6106001","2023-05-24 14:00","2023","05","24","14:00","12.7","","2.2","","49","","","","34","","33","","24.1","","100.74","","","","","","NA"
"-75.67","45.32","OTTAWA INTL A","6106001","2023-05-24 15:00","2023","05","24","15:00","12.5","","0.9","","45","","","","33","","34","","24.1","","100.77","","","","","","NA"
"-75.67","45.32","OTTAWA INTL A","6106001","2023-05-24 16:00","2023","05","24","16:00","12.6","","0.3","","43","","","","33","","25","","24.1","","100.79","","","","","","Clear"
"-75.67","45.32","OTTAWA INTL A","6106001","2023-05-24 17:00","2023","05","24","17:00","12.1","","-0.6","","41","","","","1","","24","","24.1","","100.83","","","","","","NA"
"-75.67","45.32","OTTAWA INTL A","6106001","2023-05-24 18:00","2023","05","24","18:00","10.6","","-0.7","","45","","","","36","","28","","24.1","","100.89","","","","","","NA"
"-75.67","45.32","OTTAWA INTL A","6106001","2023-05-24 19:00","2023","05","24","19:00","9.7","","-1.2","","47","","","","35","","22","","24.1","","100.93","","","","","","Mainly Clear"
"-75.67","45.32","OTTAWA INTL A","6106001","2023-05-24 20:00","2023","05","24","20:00","8.6","","-1.0","","51","","","","34","","22","","24.1","","100.97","","","","","","NA"
"-75.67","45.32","OTTAWA INTL A","6106001","2023-05-24 21:00","2023","05","24","21:00","8.1","","-0.7","","54","","","","33","","19","","24.1","","101.03","","","","","","NA"
"-75.67","45.32","OTTAWA INTL A","6106001","2023-05-24 22:00","2023","05","24","22:00","6.8","","0.4","","64","","","","33","","21","","24.1","","101.06","","","","","","Clear"
"-75.67","45.32","OTTAWA INTL A","6106001","2023-05-24 23:00","2023","05","24","23:00","6.3","","0.6","","66","","","","33","","21","","24.1","","101.08","","","","","","NA"
"-75.67","45.32","OTTAWA INTL A","6106001","2023-05-25 00:00","2023","05","25","00:00","6.3","","0.4","","66","","","","34","","21","","24.1","","101.11","","","","","","NA"
"-75.67","45.32","OTTAWA INTL A","6106001","2023-05-25 01:00","2023","05","25","01:00","5.6","","0.3","","69","","","","34","","18","","24.1","","101.09","","","","","","Clear"
"-75.67","45.32","OTTAWA INTL A","6106001","2023-05-25 02:00","2023","05","25","02:00","5.1","","-0.1","","69","","","","35","","24","","24.1","","101.09","","","","","","NA"
"-75.67","45.32","OTTAWA INTL A","6106001","2023-05-25 03:00","2023","05","25","03:00","4.7","","-0.1","","71","","","","35","","18","","24.1","","101.09","","","","","","NA"
"-75.67","45.32","OTTAWA INTL A","6106001","2023-05-25 04:00","2023","05","25","04:00","4.2","","-0.2","","73","","","","35","","16","","24.1","","101.11","","","","","","Clear"
"-75.67","45.32","OTTAWA INTL A","6106001","2023-05-25 05:00","2023","05","25","05:00","4.2","","0.0","","74","","","","33","","16","","24.1","","101.15","","","","","","NA"
"-75.67","45.32","OTTAWA INTL A","6106001","2023-05-25 06:00","2023","05","25","06:00","5.2","","0.1","","70","","","","35","","22","","24.1","","101.19","","","","","","NA"
"-75.67","45.32","OTTAWA INTL A","6106001","2023-05-25 07:00","2023","05","25","07:00","6.7","","0.3","","64","","","","35","","19","","24.1","","101.22","","","","","","Clear"
"-75.67","45.32","OTTAWA INTL A","6106001","2023-05-25 08:00","2023","05","25","08:00","9.0","","0.9","","57","","","","35","","16","","24.1","","101.24","","","","","","NA"
"-75.67","45.32","OTTAWA INTL A","6106001","2023-05-25 09:00","2023","05","25","09:00","10.1","","1.3","","54","","","","32","","15","","24.1","","101.23","","","","","","NA"
"-75.67","45.32","OTTAWA INTL A","6106001","2023-05-25 10:00","2023","05","25","10:00","11.8","","2.1","","51","","","","28","","12","","24.1","","101.20","","","","","","Clear"
"-75.67","45.32","OTTAWA INTL A","6106001","2023-05-25 11:00","2023","05","25","11:00","14.1","","-1.6","","34","","","","33","","26","","24.1","","101.18","","","","","","NA"
"-75.67","45.32","OTTAWA INTL A","6106001","2023-05-25 12:00","2023","05","25","12:00","14.7","","-1.6","","32","","","","34","","20","","24.1","","101.14","","","","","","NA"
"-75.67","45.32","OTTAWA INTL A","6106001","2023-05-25 13:00","2023","05","25","13:00","15.5","","-1.5","","31","","","","36","","16","","24.1","","101.10","","","","","","Clear"
"-75.67","45.32","OTTAWA INTL A","6106001","2023-05-25 14:00","2023","05","25","14:00","16.5","","-1.1","","30","","","","2","","17","","24.1","","101.06","","","","","","NA"
"-75.67","45.32","OTTAWA INTL A","6106001","2023-05-25 15:00","2023","05","25","15:00","16.7","","-1.2","","29","","","","33","","14","","24.1","","101.01","","","","","","NA"
"-75.67","45.32","OTTAWA INTL A","6106001","2023-05-25 16:00","2023","05","25","16:00","17.5","","-0.5","","29","","","","31","","23","","24.1","","100.96","","","","","","Clear"
"-75.67","45.32","OTTAWA INTL A","6106001","2023-05-25 17:00","2023","05","25","17:00","17.2","","-1.0","","29","","","","34","","18","","24.1","","100.91","","","","","","NA"
"-75.67","45.32","OTTAWA INTL A","6106001","2023-05-25 18:00","2023","05","25","18:00","16.8","","-0.5","","31","","","","36","","17","","24.1","","100.91","","","","","","NA"
"-75.67","45.32","OTTAWA INTL A","6106001","2023-05-25 19:00","2023","05","25","19:00","15.5","","-1.0","","32","","","","1","","13","","24.1","","100.95","","","","","","Clear"
"-75.67","45.32","OTTAWA INTL A","6106001","2023-05-25 20:00","2023","05","25","20:00","14.8","","-1.5","","32","","","","36","","7","","24.1","","100.99","","","","","","NA"
"-75.67","45.32","OTTAWA INTL A","6106001","2023-05-25 21:00","2023","05","25","21:00","12.8","","-0.3","","40","","","","33","","8","","24.1","","101.02","","","","","","NA"
"-75.67","45.32","OTTAWA INTL A","6106001","2023-05-25 22:00","2023","05","25","22:00","10.6","","0.7","","50","","","","31","","9","","24.1","","101.04","","","","","","Clear"
"-75.67","45.32","OTTAWA INTL A","6106001","2023-05-25 23:00","2023","05","25","23:00","9.1","","2.0","","61","","","","30","","7","","24.1","","101.06","","","","","","NA"
"-75.67","45.32","OTTAWA INTL A","6106001","2023-05-26 00:00","2023","05","26","00:00","7.7","","2.6","","70","","","","32","","12","","24.1","","101.07","","","","","","NA"
"-75.67","45.32","OTTAWA INTL A","6106001","2023-05-26 01:00","2023","05","26","01:00","7.4","","3.5","","76","","","","32","","9","","24.1","","101.07","","","","","","Clear"
"-75.67","45.32","OTTAWA INTL A","6106001","2023-05-26 02:00","2023","05","26","02:00","6.1","","3.3","","82","","","","33","","12","","24.1","","101.08","","","","","","NA"
"-75.67","45.32","OTTAWA INTL A","6106001","2023-05-26 03:00","2023","05","26","03:00","5.0","","1.4","","77","","","","33","","10","","24.1","","101.10","","","","","","NA"
"-75.67","45.32","OTTAWA INTL A","6106001","2023-05-26 04:00","2023","05","26","04:00","4.5","","2.1","","85","","","","31","","12","","24.1","","101.14","","","","","","Clear"
"-75.67","45.32","OTTAWA INTL A","6106001","2023-05-26 05:00","2023","05","26","05:00","5.1","","2.3","","82","","","","30","","8","","24.1","","101.21","","","","","","NA"
"-75.67","45.32","OTTAWA INTL A","6106001","2023-05-26 06:00","2023","05","26","06:00","8.0","","4.2","","77","","","","30","","8","","24.1","","101.27","","","","","","NA"
"-75.67","45.32","OTTAWA INTL A","6106001","2023-05-26 07:00","2023","05","26","07:00","11.3","","4.7","","64","","","","31","","8","","24.1","","101.34","","","","","","Clear"
"-75.67","45.32","OTTAWA INTL A","6106001","2023-05-26 08:00","2023","05","26","08:00","14.7","","3.2","","46","","","","33","","13","","24.1","","101.38","","","","","","NA"
"-75.67","45.32","OTTAWA INTL A","6106001","2023-05-26 09:00","2023","05","26","09:00","16.9","","1.2","","35","","","","36","","15","","24.1","","101.36","","","","","","NA"
"-75.67","45.32","OTTAWA INTL A","6106001","2023-05-26 10:00","2023","05","26","10:00","17.7","","0.5","","31","","","","32","","18","","24.1","","101.33","","","","","","Clear"
"-75.67","45.32","OTTAWA INTL A","6106001","2023-05-26 11:00","2023","05","26","11:00","18.4","","0.7","","30","","","","30","","19","","24.1","","101.30","","","","","","NA"
"-75.67","45.32","OTTAWA INTL A","6106001","2023-05-26 12:00","2023","05","26","12:00","19.3","","-1.0","","25","","","","33","","17","","24.1","","101.23","","","","","","NA"
"-75.67","45.32","OTTAWA INTL A","6106001","2023-05-26 13:00","2023","05","26","13:00","19.4","","-1.4","","24","","","","30","","7","","24.1","","101.21","","","","","","Clear"
"-75.67","45.32","OTTAWA INTL A","6106001","2023-05-26 14:00","2023","05","26","14:00","20.3","","0.9","","27","","","","35","","6","","24.1","","101.17","","","","","","NA"
"-75.67","45.32","OTTAWA INTL A","6106001","2023-05-26 15:00","2023","05","26","15:00","19.9","","2.7","","32","","","","34","","14","","24.1","","101.15","","","","","","NA"
"-75.67","45.32","OTTAWA INTL A","6106001","2023-05-26 16:00","2023","05","26","16:00","20.1","","4.3","","35","","","","25","","10","","24.1","","101.12","","","","","","Mostly Cloudy"
"-75.67","45.32","OTTAWA INTL A","6106001","2023-05-26 17:00","2023","05","26","17:00","20.6","","3.7","","32","","","","25","","14","","24.1","","101.09","","","","","","NA"
"-75.67","45.32","OTTAWA INTL A","6106001","2023-05-26 18:00","2023","05","26","18:00","21.1","","1.6","","27","","","","28","","17","","24.1","","101.05","","","","","","NA"
"-75.67","45.32","OTTAWA INTL A","6106001","2023-05-26 19:00","2023","05","26","19:00","17.9","","3.4","","38","","","","27","","8","","24.1","","101.04","","","","","","Mostly Cloudy"
"-75.67","45.32","OTTAWA INTL A","6106001","2023-05-26 20:00","2023","05","26","20:00","17.8","","2.2","","35","","","","21","","5","","24.1","","101.05","","","","","","NA"
"-75.67","45.32","OTTAWA INTL A","6106001","2023-05-26 21:00","2023","05","26","21:00","15.9","","3.4","","43","","","","19","","9","","24.1","","101.08","","","","","","NA"
"-75.67","45.32","OTTAWA INTL A","6106001","2023-05-26 22:00","2023","05","26","22:00","11.5","","4.2","","61","","","","19","","9","","24.1","","101.14","","","","","","Mostly Cloudy"
"-75.67","45.32","OTTAWA INTL A","6106001","2023-05-26 23:00","2023","05","26","23:00","13.0","","4.5","","56","","","","21","","10","","24.1","","101.12","","","","","","NA"
"-75.67","45.32","OTTAWA INTL A","6106001","2023-05-27 00:00","2023","05","27","00:00","11.3","","5.3","","66","","","","21","","10","","24.1","","101.12","","","","","","NA"
"-75.67","45.32","OTTAWA INTL A","6106001","2023-05-27 01:00","2023","05","27","01:00","11.3","","5.4","","67","","","","22","","8","","24.1","","101.12","","","","","","Clear"
"-75.67","45.32","OTTAWA INTL A","6106001","2023-05-27 02:00","2023","05","27","02:00","9.6","","5.5","","75","","","","20","","9","","24.1","","101.18","","","","","","NA"
"-75.67","45.32","OTTAWA INTL A","6106001","2023-05-27 03:00","2023","05","27","03:00","8.8","","5.4","","79","","","","19","","11","","24.1","","101.19","","","","","","NA"
"-75.67","45.32","OTTAWA INTL A","6106001","2023-05-27 04:00","2023","05","27","04:00","7.9","","5.2","","83","","","","20","","12","","24.1","","101.18","","","","","","Clear"
"-75.67","45.32","OTTAWA INTL A","6106001","2023-05-27 05:00","2023","05","27","05:00","8.0","","5.2","","83","","","","22","","8","","24.1","","101.22","","","","","","NA"
"-75.67","45.32","OTTAWA INTL A","6106001","2023-05-27 06:00","2023","05","27","06:00","9.6","","6.2","","80","","","","20","","7","","24.1","","101.27","","","","","","NA"
"-75.67","45.32","OTTAWA INTL A","6106001","2023-05-27 07:00","2023","05","27","07:00","12.7","","7.2","","69","","","","28","","8","","24.1","","101.29","","","","","","Clear"
"-75.67","45.32","OTTAWA INTL A","6106001","2023-05-27 08:00","2023","05","27","08:00","16.3","","6.3","","51","","","","26","","9","","24.1","","101.29","","","","","","NA"
"-75.67","45.32","OTTAWA INTL A","6106001","2023-05-27 09:00","2023","05","27","09:00","19.4","","5.5","","40","","","","29","","10","","24.1","","101.27","","","","","","NA"
"-75.67","45.32","OTTAWA INTL A","6106001","2023-05-27 10:00","2023","05","27","10:00","21.6","","6.0","","36","","","","28","","7","","24.1","","101.25","","","","","","Clear"
"-75.67","45.32","OTTAWA INTL A","6106001","2023-05-27 11:00","2023","05","27","11:00","23.9","","5.3","","30","","","","24","","13","","24.1","","101.20","","","","","","NA"
"-75.67","45.32","OTTAWA INTL A","6106001","2023-05-27 12:00","2023","05","27","12:00","25.5","","2.1","","21","","","","29","","15","","24.1","","101.14","","","","","","NA"
"-75.67","45.32","OTTAWA INTL A","6106001","2023-05-27 13:00","2023","05","27","13:00","26.4","","5.8","","26","","","","23","","11","","24.1","","101.07","","26","","","","Clear"
"-75.67","45.32","OTTAWA INTL A","6106001","2023-05-27 14:00","2023","05","27","14:00","27.5","","5.0","","23","","","","26","","17","","24.1","","100.99","","27","","","","NA"
"-75.67","45.32","OTTAWA INTL A","6106001","2023-05-27 15:00","2023","05","27","15:00","27.8","","5.8","","24","","","","25","","21","","24.1","","100.93","","27","","","","NA"
"-75.67","45.32","OTTAWA INTL A","6106001","2023-05-27 16:00","2023","05","27","16:00","28.0","","4.7","","22","","","","26","","16","","24.1","","100.87","","27","","","","Clear"
"-75.67","45.32","OTTAWA INTL A","6106001","2023-05-27 17:00","2023","05","27","17:00","27.4","","6.1","","25","","","","20","","13","","24.1","","100.81","","27","","","","NA"
"-75.67","45.32","OTTAWA INTL A","6106001","2023-05-27 18:00","2023","05","27","18:00","26.3","","5.8","","27","","","","21","","12","","24.1","","100.78","","26","","","","NA"
"-75.67","45.32","OTTAWA INTL A","6106001","2023-05-27 19:00","2023","05","27","19:00","23.9","","8.8","","38","","","","21","","18","","24.1","","100.79","","25","","","","Clear"
"-75.67","45.32","OTTAWA INTL A","6106001","2023-05-27 20:00","2023","05","27","20:00","20.7","","9.9","","49","","","","20","","10","","24.1","","100.81","","","","","","NA"
"-75.67","45.32","OTTAWA INTL A","6106001","2023-05-27 21:00","2023","05","27","21:00","19.1","","9.3","","53","","","","19","","11","","24.1","","100.84","","","","","","NA"
"-75.67","45.32","OTTAWA INTL A","6106001","2023-05-27 22:00","2023","05","27","22:00","17.2","","8.3","","55","","","","20","","10","","24.1","","100.83","","","","","","Clear"
"-75.67","45.32","OTTAWA INTL A","6106001","2023-05-27 23:00","2023","05","27","23:00","16.6","","7.3","","54","","","","23","","12","","24.1","","100.86","","","","","","NA"
"-75.67","45.32","OTTAWA INTL A","6106001","2023-05-28 00:00","2023","05","28","00:00","14.6","","7.0","","60","","","","24","","8","","24.1","","100.83","","","","","","NA"
"-75.67","45.32","OTTAWA INTL A","6106001","2023-05-28 01:00","2023","05","28","01:00","14.1","","7.0","","62","","","","22","","13","","24.1","","100.81","","","","","","Clear"
"-75.67","45.32","OTTAWA INTL A","6106001","2023-05-28 02:00","2023","05","28","02:00","12.8","","6.9","","67","","","","23","","10","","24.1","","100.80","","","","","","NA"
"-75.67","45.32","OTTAWA INTL A","6106001","2023-05-28 03:00","2023","05","28","03:00","11.7","","6.9","","72","","","","21","","10","","24.1","","100.76","","","","","","NA"
"-75.67","45.32","OTTAWA INTL A","6106001","2023-05-28 04:00","2023","05","28","04:00","10.5","","6.4","","76","","","","19","","5","","24.1","","100.74","","","","","","Clear"
"-75.67","45.32","OTTAWA INTL A","6106001","2023-05-28 05:00","2023","05","28","05:00","10.6","","6.8","","77","","","","20","","12","","24.1","","100.71","","","","","","NA"
"-75.67","45.32","OTTAWA INTL A","6106001","2023-05-28 06:00","2023","05","28","06:00","13.0","","8.1","","72","","","","21","","9","","24.1","","100.70","","","","","","NA"
"-75.67","45.32","OTTAWA INTL A","6106001","2023-05-28 07:00","2023","05","28","07:00","17.1","","5.9","","47","","","","26","","13","","24.1","","100.66","","","","","","Clear"
"-75.67","45.32","OTTAWA INTL A","6106001","2023-05-28 08:00","2023","05","28","08:00","19.2","","4.8","","38","","","","28","","19","","24.1","","100.65","","","","","","NA"
"-75.67","45.32","OTTAWA INTL A","6106001","2023-05-28 09:00","2023","05","28","09:00","20.8","","5.3","","36","","","","29","","16","","24.1","","100.60","","","","","","NA"
"-75.67","45.32","OTTAWA INTL A","6106001","2023-05-28 10:00","2023","05","28","10:00","23.4","","7.2","","35","","","","25","","15","","24.1","","100.55","","","","","","Clear"
"-75.67","45.32","OTTAWA INTL A","6106001","2023-05-28 11:00","2023","05","28","11:00","25.3","","7.1","","31","","","","26","","14","","24.1","","100.51","","25","","","","NA"
"-75.67","45.32","OTTAWA INTL A","6106001","2023-05-28 12:00","2023","05","28","12:00","27.4","","8.6","","30","","","","24","","17","","24.1","","100.44","","28","","","","NA"
"-75.67","45.32","OTTAWA INTL A","6106001","2023-05-28 13:00","2023","05","28","13:00","29.0","","9.1","","28","","","","28","","10","","24.1","","100.36","","30","","","","Clear"
"-75.67","45.32","OTTAWA INTL A","6106001","2023-05-28 14:00","2023","05","28","14:00","29.6","","4.0","","19","","","","29","","21","","24.1","","100.27","","29","","","","NA"
"-75.67","45.32","OTTAWA INTL A","6106001","2023-05-28 15:00","2023","05","28","15:00","29.9","","4.9","","20","","","","28","","18","","24.1","","100.22","","29","","","","NA"
"-75.67","45.32","OTTAWA INTL A","6106001","2023-05-28 16:00","2023","05","28","16:00","30.2","","6.7","","22","","","","29","","13","","24.1","","100.13","","30","","","","Clear"
"-75.67","45.32","OTTAWA INTL A","6106001","2023-05-28 17:00","2023","05","28","17:00","29.5","","6.1","","22","","","","28","","20","","24.1","","100.10","","29","","","","NA"
"-75.67","45.32","OTTAWA INTL A","6106001","2023-05-28 18:00","2023","05","28","18:00","28.7","","6.4","","24","","","","26","","16","","24.1","","100.06","","28","","","","NA"
"-75.67","45.32","OTTAWA INTL A","6106001","2023-05-28 19:00","2023","05","28","19:00","26.1","","8.5","","32","","","","27","","10","","24.1","","100.06","","27","","","","Clear"
"-75.67","45.32","OTTAWA INTL A","6106001","2023-05-28 20:00","2023","05","28","20:00","26.2","","10.1","","36","","","","1","","29","","24.1","","100.13","","28","","","","NA"
"-75.67","45.32","OTTAWA INTL A","6106001","2023-05-28 21:00","2023","05","28","21:00","24.9","","12.3","","45","","","","1","","28","","24.1","","100.20","","27","","","","NA"
"-75.67","45.32","OTTAWA INTL A","6106001","2023-05-28 22:00","2023","05","28","22:00","23.1","","11.2","","47","","","","1","","17","","24.1","","100.26","","25","","","","Clear"
"-75.67","45.32","OTTAWA INTL A","6106001","2023-05-28 23:00","2023","05","28","23:00","20.5","","7.9","","44","","","","4","","12","","24.1","","100.30","","","","","","NA"
"-75.67","45.32","OTTAWA INTL A","6106001","2023-05-29 00:00","2023","05","29","00:00","19.3","","4.7","","38","","","","3","","18","","24.1","","100.36","","","","","","NA"
"-75.67","45.32","OTTAWA INTL A","6106001","2023-05-29 01:00","2023","05","29","01:00","17.9","","4.2","","40","","","","4","","31","","24.1","","100.40","","","","","","Clear"
"-75.67","45.32","OTTAWA INTL A","6106001","2023-05-29 02:00","2023","05","29","02:00","15.5","","4.1","","46","","","","5","","15","","24.1","","100.48","","","","","","NA"
"-75.67","45.32","OTTAWA INTL A","6106001","2023-05-29 03:00","2023","05","29","03:00","13.2","","4.3","","55","","","","5","","16","","24.1","","100.52","","","","","","NA"
"-75.67","45.32","OTTAWA INTL A","6106001","2023-05-29 04:00","2023","05","29","04:00","14.2","","3.6","","49","","","","6","","25","","24.1","","100.54","","","","","","Clear"
"-75.67","45.32","OTTAWA INTL A","6106001","2023-05-29 05:00","2023","05","29","05:00","13.6","","3.4","","50","","","","6","","19","","24.1","","100.62","","","","","","NA"
"-75.67","45.32","OTTAWA INTL A","6106001","2023-05-29 06:00","2023","05","29","06:00","14.8","","3.8","","47","","","","7","","25","","24.1","","100.67","","","","","","NA"
"-75.67","45.32","OTTAWA INTL A","6106001","2023-05-29 07:00","2023","05","29","07:00","16.1","","4.0","","44","","","","6","","25","","24.1","","100.70","","","","","","Clear"
"-75.67","45.32","OTTAWA INTL A","6106001","2023-05-29 08:00","2023","05","29","08:00","17.4","","3.0","","38","","","","8","","30","","24.1","","100.77","","","","","","NA"
"-75.67","45.32","OTTAWA INTL A","6106001","2023-05-29 09:00","2023","05","29","09:00","18.9","","3.8","","37","","","","9","","32","","24.1","","100.78","","","","","","NA"
"-75.67","45.32","OTTAWA INTL A","6106001","2023-05-29 10:00","2023","05","29","10:00","20.4","","4.5","","35","","","","7","","30","","24.1","","100.77","","","","","","Mainly Clear"
"-75.67","45.32","OTTAWA INTL A","6106001","2023-05-29 11:00","2023","05","29","11:00","21.4","","4.6","","33","","","","4","","18","","24.1","","100.76","","","","","","NA"
"-75.67","45.32","OTTAWA INTL A","6106001","2023-05-29 12:00","2023","05","29","12:00","22.1","","3.1","","28","","","","7","","29","","24.1","","100.71","","","","","","NA"
"-75.67","45.32","OTTAWA INTL A","6106001","2023-05-29 13:00","2023","05","29","13:00","23.1","","4.6","","30","","","","7","","27","","24.1","","100.66","","","","","","Mainly Clear"
"-75.67","45.32","OTTAWA INTL A","6106001","2023-05-29 14:00","2023","05","29","14:00","23.6","","2.8","","25","","","","8","","27","","24.1","","100.60","","","","","","NA"
"-75.67","45.32","OTTAWA INTL A","6106001","2023-05-29 15:00","2023","05","29","15:00","23.9","","3.2","","26","","","","7","","33","","24.1","","100.56","","","","","","NA"
"-75.67","45.32","OTTAWA INTL A","6106001","2023-05-29 16:00","2023","05","29","16:00","23.7","","0.1","","21","","","","7","","15","","24.1","","100.52","","","","","","Mainly Clear"
"-75.67","45.32","OTTAWA INTL A","6106001","2023-05-29 17:00","2023","05","29","17:00","23.4","","1.7","","24","","","","5","","23","","24.1","","100.51","","","","","","NA"
"-75.67","45.32","OTTAWA INTL A","6106001","2023-05-29 18:00","2023","05","29","18:00","22.3","","1.4","","25","","","","6","","27","","24.1","","100.51","","","","","","NA"
"-75.67","45.32","OTTAWA INTL A","6106001","2023-05-29 19:00","2023","05","29","19:00","20.3","","1.9","","29","","","","8","","14","","24.1","","100.52","","","","","","Mainly Clear"
"-75.67","45.32","OTTAWA INTL A","6106001","2023-05-29 20:00","2023","05","29","20:00","17.5","","1.7","","34","","","","8","","10","","24.1","","100.54","","","","","","NA"
"-75.67","45.32","OTTAWA INTL A","6106001","2023-05-29 21:00","2023","05","29","21:00","15.5","","1.5","","38","","","","9","","12","","24.1","","100.58","","","","","","NA"
"-75.67","45.32","OTTAWA INTL A","6106001","2023-05-29 22:00","2023","05","29","22:00","13.7","","1.5","","43","","","","8","","11","","24.1","","100.59","","","","","","Clear"
"-75.67","45.32","OTTAWA INTL A","6106001","2023-05-29 23:00","2023","05","29","23:00","12.2","","1.2","","47","","","","4","","16","","24.1","","100.61","","","","","","NA"
"-75.67","45.32","OTTAWA INTL A","6106001","2023-05-30 00:00","2023","05","30","00:00","10.8","","1.3","","52","","","","4","","17","","24.1","","100.57","","","","","","NA"
"-75.67","45.32","OTTAWA INTL A","6106001","2023-05-30 01:00","2023","05","30","01:00","10.4","","1.6","","54","","","","5","","17","","24.1","","100.56","","","","","","Clear"
"-75.67","45.32","OTTAWA INTL A","6106001","2023-05-30 02:00","2023","05","30","02:00","9.8","","2.2","","59","","","","4","","14","","24.1","","100.54","","","","","","NA"
"-75.67","45.32","OTTAWA INTL A","6106001","2023-05-30 03:00","2023","05","30","03:00","8.3","","2.8","","68","","","","4","","16","","24.1","","100.53","","","","","","NA"
"-75.67","45.32","OTTAWA INTL A","6106001","2023-05-30 04:00","2023","05","30","04:00","8.3","","2.9","","69","","","","5","","13","","24.1","","100.57","","","","","","Mainly Clear"
"-75.67","45.32","OTTAWA INTL A","6106001","2023-05-30 05:00","2023","05","30","05:00","9.3","","3.8","","68","","","","5","","16","","24.1","","100.62","","","","","","NA"
"-75.67","45.32","OTTAWA INTL A","6106001","2023-05-30 06:00","2023","05","30","06:00","12.8","","4.2","","56","","","","7","","15","","24.1","","100.66","","","","","","NA"
"-75.67","45.32","OTTAWA INTL A","6106001","2023-05-30 07:00","2023","05","30","07:00","14.9","","5.4","","53","","","","9","","10","","24.1","","100.71","","","","","","Clear"
"-75.67","45.32","OTTAWA INTL A","6106001","2023-05-30 08:00","2023","05","30","08:00","17.9","","8.0","","52","","","","12","","13","","24.1","","100.70","","","","","","NA"
"-75.67","45.32","OTTAWA INTL A","6106001","2023-05-30 09:00","2023","05","30","09:00","20.4","","9.6","","49","","","","21","","9","","24.1","","100.69","","","","","","NA"
"-75.67","45.32","OTTAWA INTL A","6106001","2023-05-30 10:00","2023","05","30","10:00","21.2","","10.1","","49","","","","36","","1","","24.1","","100.68","","","","","","Clear"
"-75.67","45.32","OTTAWA INTL A","6106001","2023-05-30 11:00","2023","05","30","11:00","22.9","","10.9","","46","","","","13","","5","","24.1","","100.65","","25","","","","NA"
"-75.67","45.32","OTTAWA INTL A","6106001","2023-05-30 12:00","2023","05","30","12:00","24.4","","11.5","","44","","","","19","","12","","24.1","","100.59","","26","","","","NA"
"-75.67","45.32","OTTAWA INTL A","6106001","2023-05-30 13:00","2023","05","30","13:00","25.0","","9.2","","36","","","","24","","8","","24.1","","100.54","","26","","","","Clear"
"-75.67","45.32","OTTAWA INTL A","6106001","2023-05-30 14:00","2023","05","30","14:00","26.4","","9.6","","34","","","","18","","7","","24.1","","100.49","","27","","","","NA"
"-75.67","45.32","OTTAWA INTL A","6106001","2023-05-30 15:00","2023","05","30","15:00","27.3","","10.2","","34","","","","16","","7","","24.1","","100.45","","29","","","","NA"
"-75.67","45.32","OTTAWA INTL A","6106001","2023-05-30 16:00","2023","05","30","16:00","27.4","","8.5","","30","","","","22","","12","","24.1","","100.43","","28","","","","Clear"
"-75.67","45.32","OTTAWA INTL A","6106001","2023-05-30 17:00","2023","05","30","17:00","27.2","","7.9","","29","","","","25","","7","","24.1","","100.40","","28","","","","NA"
"-75.67","45.32","OTTAWA INTL A","6106001","2023-05-30 18:00","2023","05","30","18:00","26.3","","7.7","","30","","","","22","","10","","24.1","","100.40","","27","","","","NA"
"-75.67","45.32","OTTAWA INTL A","6106001","2023-05-30 19:00","2023","05","30","19:00","24.7","","7.5","","33","","","","20","","7","","24.1","","100.39","","25","","","","Clear"
"-75.67","45.32","OTTAWA INTL A","6106001","2023-05-30 20:00","2023","05","30","20:00","20.9","","7.5","","42","","","","17","","5","","24.1","","100.40","","","","","","NA"
"-75.67","45.32","OTTAWA INTL A","6106001","2023-05-30 21:00","2023","05","30","21:00","20.9","","8.9","","46","","","","20","","8","","24.1","","100.47","","","","","","NA"
"-75.67","45.32","OTTAWA INTL A","6106001","2023-05-30 22:00","2023","05","30","22:00","19.3","","9.7","","53","","","","22","","8","","24.1","","100.50","","","","","","Clear"
"-75.67","45.32","OTTAWA INTL A","6106001","2023-05-30 23:00","2023","05","30","23:00","19.0","","9.1","","52","","","","21","","8","","24.1","","100.50","","","","","","NA"
"-75.67","45.32","OTTAWA INTL A","6106001","2023-05-31 00:00","2023","05","31","00:00","15.8","","9.2","","65","","","","20","","9","","24.1","","100.50","","","","","","NA"
"-75.67","45.32","OTTAWA INTL A","6106001","2023-05-31 01:00","2023","05","31","01:00","15.4","","9.6","","68","","","","22","","10","","24.1","","100.48","","","","","","Clear"
"-75.67","45.32","OTTAWA INTL A","6106001","2023-05-31 02:00","2023","05","31","02:00","14.9","","10.0","","72","","","","36","","3","","24.1","","100.50","","","","","","NA"
"-75.67","45.32","OTTAWA INTL A","6106001","2023-05-31 03:00","2023","05","31","03:00","11.9","","9.1","","83","","","","18","","7","","24.1","","100.52","","","","","","NA"
"-75.67","45.32","OTTAWA INTL A","6106001","2023-05-31 04:00","2023","05","31","04:00","12.2","","9.5","","83","","","","19","","7","","24.1","","100.57","","","","","","Clear"
"-75.67","45.32","OTTAWA INTL A","6106001","2023-05-31 05:00","2023","05","31","05:00","13.2","","9.7","","80","","","","20","","10","","24.1","","100.62","","","","","","NA"
"-75.67","45.32","OTTAWA INTL A","6106001","2023-05-31 06:00","2023","05","31","06:00","15.6","","10.5","","71","","","","25","","4","","24.1","","100.65","","","","","","NA"
"-75.67","45.32","OTTAWA INTL A","6106001","2023-05-31 07:00","2023","05","31","07:00","19.1","","11.0","","59","","","","24","","9","","24.1","","100.68","","","","","","Clear"
"-75.67","45.32","OTTAWA INTL A","6106001","2023-05-31 08:00","2023","05","31","08:00","22.4","","10.2","","45","","","","24","","9","","24.1","","100.70","","","","","","NA"
"-75.67","45.32","OTTAWA INTL A","6106001","2023-05-31 09:00","2023","05","31","09:00","24.7","","10.3","","40","","","","24","","7","","24.1","","100.68","","26","","","","NA"
"-75.67","45.32","OTTAWA INTL A","6106001","2023-05-31 10:00","2023","05","31","10:00","27.1","","11.0","","36","","","","26","","9","","24.1","","100.68","","29","","","","Clear"
"-75.67","45.32","OTTAWA INTL A","6106001","2023-05-31 11:00","2023","05","31","11:00","28.0","","12.1","","37","","","","24","","5","","24.1","","100.65","","30","","","","NA"
"-75.67","45.32","OTTAWA INTL A","6106001","2023-05-31 12:00","2023","05","31","12:00","30.2","","11.3","","31","","","","36","","2","","24.1","","100.61","","32","","","","NA"
"-75.67","45.32","OTTAWA INTL A","6106001","2023-05-31 13:00","2023","05","31","13:00","30.7","","9.9","","27","","","","25","","12","","24.1","","100.56","","32","","","","Clear"
"-75.67","45.32","OTTAWA INTL A","6106001","2023-05-31 14:00","2023","05","31","14:00","31.3","","9.4","","25","","","","3","","9","","24.1","","100.51","","32","","","","NA"
"-75.67","45.32","OTTAWA INTL A","6106001","2023-05-31 15:00","2023","05","31","15:00","32.0","","10.2","","26","","","","30","","14","","24.1","","100.45","","33","","","","NA"
"-75.67","45.32","OTTAWA INTL A","6106001","2023-05-31 16:00","2023","05","31","16:00","31.8","","10.7","","27","","","","30","","11","","24.1","","100.42","","33","","","","Clear"
"-75.67","45.32","OTTAWA INTL A","6106001","2023-05-31 17:00","2023","05","31","17:00","31.9","","7.3","","21","","","","31","","13","","24.1","","100.39","","32","","","","NA"
"-75.67","45.32","OTTAWA INTL A","6106001","2023-05-31 18:00","2023","05","31","18:00","30.5","","10.9","","29","","","","24","","7","","24.1","","100.38","","32","","","","NA"
"-75.67","45.32","OTTAWA INTL A","6106001","2023-05-31 19:00","2023","05","31","19:00","27.7","","11.4","","36","","","","27","","4","","24.1","","100.38","","30","","","","Clear"
"-75.67","45.32","OTTAWA INTL A","6106001","2023-05-31 20:00","2023","05","31","20:00","25.3","","12.2","","43","","","","36","","3","","24.1","","100.39","","28","","","","NA"
"-75.67","45.32","OTTAWA INTL A","6106001","2023-05-31 21:00","2023","05","31","21:00","24.3","","13.1","","49","","","","20","","9","","24.1","","100.46","","27","","","","NA"
"-75.67","45.32","OTTAWA INTL A","6106001","2023-05-31 22:00","2023","05","31","22:00","22.8","","14.2","","58","","","","19","","10","","24.1","","100.50","","26","","","","Clear"
"-75.67","45.32","OTTAWA INTL A","6106001","2023-05-31 23:00","2023","05","31","23:00","21.5","","14.3","","63","","","","21","","7","","24.1","","100.52","","25","","","","NA"
